REGION,PROVINCE,ADDRESS,NAME OF FACILITY,"OWNERSHIP (DOH Retained, LGU, GOVERNMENT & PRIVATE)",CLASSIFICATION (Hospital-based / non-hospital based) ,TESTING PROCEDURE,Brand,"Date of Submission of Application & Self-Assessment Tool
(start date)
",STAGE,"REMARKS
",LTO VALIDITY,LICENSED NUMBER,With POOLED testing certificate,HEAD OF LABORATORY,EMAIL ADDRESS,CONTACT NUMBER,INSPECTORS / ASSESORS,,,,,,,,,,,,,
CARAGA,Agusan Del Sur,Mun. of Prosperidad,Democrito O. Plaza Memorial Hospital,LGU,Hospital Based,rRT PCR,,,5,NEW,01/15/21 - 12/31/21,16-0005-2021-CT-1,,Dr. Raul Venerando Atupan,dopmhmolecularlab@gmail.com,,"Engr. Lui, Ms. Fermo, Ms. Padua, Ms. Foronda & Engr. Salanga",,,,,,,,,,,,,
Region 6,Aklan,Mun. of Kalibo,Dr. Rafael S. Tumbokon Memorial Hospital,LGU,Hospital Based,rRT pCR,,,5,RENEWED,01/01/21 - 12/31/21,06-0448-21-H2-1,,Dr. Marianette Noelle Bieren,drstmh.covid19lab@gmail.com,2682606,"Dr. Aguilar, Mr. Malbacias, Ar. Leonado, and Ms. Padua ",,,,,,,,,,,,,
Region 5,Albay,"Legazpi City, Albay",Bicol Regional Diagnostic and Reference Laboratory,GOVERNMENT,Non-Hospital Based,rRT PCR,,SNL,5,RENEWED,01/01/21 - 12/31/21,05-0036-2021-CT-1,,Dr. Raymundo B. Ibbarientos,brdrl.doh@gmail.com,(052) 742 2600,,,,,,,,,,,,,,
Region 6,Antique,Mun. of San Jose,Antique Molecular Laboratory,GOVERNMENT,Hospital Based,rRT PCR,,"April 12, 2021",3,FOR COMPLIANCE,,,,Dr. Perez,asmgh19@yahoo.com,63917 329 1217,"Dr. Hautea, Ms. Toledo, Ms. Bato & Engr. Reyes",,,,,,,,,,,,,
Region 3,Bataan,"Manahan St, Tenejero Balanga City",Bataan General Hospital,DOH Retained,Hospital Based,Cartridge-based PCR,GeneXpert,,5,RENEWED,01/01/21 - 12/31/21,03-0247-21-H3-2,,Dr. Jefferson B. Mendoza,bghmcpcrlab@gmail.com,(047) 237 2275 loc 415 loc 519,,,,,,,,,,,,,,
Region 3,Bataan,"Manahan St, Tenejero Balanga City",Bataan General Hospital,DOH Retained,Hospital Based,rRT PCR,,,5,RENEWED,01/01/21 - 12/31/21,03-0247-21-H3-2,,Dr. Jefferson B. Mendoza,bghmcpcrlab@gmail.com,(047) 237 2275 loc 415 loc 519,,,,,,,,,,,,,,
Region 3,Bataan,Mun. of Mariveles,Mariveles District Hospital,GOVERNMENT,Hospital Based,rRT PCR,,,5,NEW,04/15/21 - 12/31/21,,,Dr. Santos,mdh@bataan.gov.ph,,"Mr. Olmedo, Ar. Leonado, Ms. Fermo, Ms. Padua, Ms. Foronda & Engr. Salanga",,,,,,,,,,,,,
Region 3,Bataan,Mun. of Mariveles,Mariveles District Hospital,GOVERNMENT,Hospital Based,Cartridge-based PCR,GeneXpert,,4,For Proficiency Testing,,,,Dr. Santos,mdh@bataan.gov.ph,,"Ar. Leonado, Ms. Fermo, Mr. Olmedo",,,,,,,,,,,,,
Region 4A,Batangas,"Bihi Road, Kumintang Ibaba, Batangas",Batangas Medical Center,DOH Retained,Hospital Based,Cartridge-based PCR,GeneXpert,,5,RENEWED,01/01/21 - 12/31/21,4A-0304-21-H3-1,,Dr. Anacleta P. Valdez,batmcxpertxpresscovidlab@gmail.com,(043) 740 8307 loc 1099,,,,,,,,,,,,,,
Region 4A,Batangas,"Bihi Road, Kumintang Ibaba, Batangas",Batangas Medical Center,DOH Retained,Hospital Based,rRT PCR,,,5,RENEWED,01/01/21 - 12/31/21,4A-0304-21-H3-1,,Dr. Anacleta P. Valdez,batmcmolecularlab@gmail.com,(043) 740 8307 loc 1093,,,,,,,,,,,,,,
Region 4A,Batangas,"1 President Jose P. Laurel Hwy, Tanauan, 4232 Batangas",Daniel O. Mercado Medical Center,PRIVATE,Hospital Based,rRT PCR,,,5,RENEWED,01/01/21 - 12/31/21,4A-0336-21-H2-2,,Dr. Michele Sia Hernandez -Diwa,coo.exesec@dmmcinc.com / customer-service@dmmcinc.com,(043) 778 1810,,,,,,,,,,,,,,
Region 4A,Batangas,"JP Laurel Highway, Mataas na lupa, Lipa City Batangas",Mary Mediatrix Medical Center,PRIVATE,Hospital Based,rRT PCR,,,5,RENEWED,01/01/21 - 12/31/21,4A-0306-21-H3-2,,Dr. Anacleta P. Valdez,admin@mmmc.ph,(043) 773 6800,,,,,,,,,,,,,,
Region 4A,Batangas,Batangas City,PRC- Batangas Chapter Molecular Laboratory,PRIVATE,Non-Hospital Based,rRT pCR,,,5,RENEWED,01/01/21 - 12/31/21,4A-0032-2021-CT-2,,,apv.502013mmga@gmail.com,(043) 723 3027,"Dr. Bonagua, Ms. Jessa Toledo, Ms. Bato, Ms. Casagan & Engr. Reyes",,,,,,,,,,,,,
Region 4A,Batangas,Lipa City,Ospital ng Lipa,LGU,Hospital Based,rRT PCR,,"May 19, 2020",3,FOR COMPLIANCE,,,,,,,,,,,,,,,,,,,,
Region 4A,Batangas,"Brgy. Pulong Niogan, Mabini",Mabini Community Hospital,GOVERNMENT,Hospital Based,Cartridge-based PCR,EasyNat,"April 16, 2021",3,FOR COMPLIANCE,,,,Dr. Tee,cbeniga@gmail.com,63966 742 9688,"Dr. Bonagua, Engr. Lui, Ms. Lentija, Ms. Litiatco, Ms. Bato & Engr. Reyes",,,,,,,,,,,,,
CAR,Benguet,"Pack Road, Baguio City",Baguio General Hospital and Medical Center (BGHMC),DOH Retained,Hospital Based,rRT PCR,,SNL,5,RENEWED,01/01/21 - 12/31/21,14-0067-21-H3-1,"December 21, 2020",Dr. Rhesa Michelle Managan -Wong,bghmcmolbiolab@gmail.com,(074) 661 7910 loc 758,,,,,,,,,,,,,,
CAR,Benguet,"Halsema Highway, La Trinidad",Benguet General Hospital,LGU,Hospital Based,rRT PCR,,,5,NEW,02/16/21 - 12/31/21,14-0066-21-H2-1,,Dr. Bernadette Baldo,beghlab@gmail.com,,,,,,,,,,,,,,,
CAR,Benguet,"Bakakeng Norte, Baguio City",Parkway Medical and Diagnostic Center,PRIVATE,Non-Hospital Based,rRT PCR,,,5,RENEWED,01/01/21 - 12/31/21,14-0063-2021-CT-2,,,parkwaybaguio@gmail.com,0916 595 1712,,,,,,,,,,,,,,
Region 7,Bohol,Tagbilaran City,Bohol Containerized PCR Laboratory,LGU,Non-Hospital Based,rRT pCR,,,5,RENEWED,01/01/21 - 12/31/21,07-0013-2021-CT-2,,Dr. Jessica Socorro-Yu,phoboholhospital@gmail.com,,,,,,,,,,,,,,,
Region 7,Bohol,"Miguel Parras St., 
 Tagbilaran City, Bohol",Governor Celestino Gallares Memorial Medical Center,DOH Retained,Hospital Based,rRT PCR,,,5,RENEWED,01/01/21 - 12/31/21,07-0149-21-H3-1,,Dr. Joseph Antoine Chatto,gcgmhmolecularlab2020@gmail.com,(038) 411 4868,,,,,,,,,,,,,,
Region 10,Bukidnon,Malaybalay City,Bukidnon Provincial Medical Center,GOVERNMENT,Hospital Based,rRT PCR,,"February 2, 2021",3,FOR COMPLIANCE,,,,,,,,,,,,,,,,,,,,
Region 3,Bulacan,"99 Potenciano Street, Malolos, Bulacan",Bulacan Medical Center,LGU,Hospital Based,Cartridge-based PCR,GeneXpert,,5,RENEWED,01/01/21 - 12/31/21,03-0071-21-H3-1,,Dr. Joseph Michael R. Espiritu,bmcmolecularlab@yahoo.com,(044) 791 0630,,,,,,,,,,,,,,
Region 3,Bulacan,"99 Potenciano Street, Malolos, Bulacan",Bulacan Medical Center,LGU,Hospital Based,rRT pCR,,,5,RENEWED,01/01/21 - 12/31/21,03-0071-21-H3-1,,Dr. Joseph Michael R. Espiritu,bmcmolecularlab@yahoo.com,(044) 791 0630,,,,,,,,,,,,,,
Region 3,Bulacan,City of Malolos,Graman Medical & Maternity Hospital Inc Molecular Laboratory,PRIVATE,Hospital Based,rRT PCR,,,5,RENEWED,01/01/21 - 12/31/21,03-0115-20-H1-2,,Dr. Aida Isabel Mendoza-Leano,gramanmolecularlab@gmail.com,(044) 896 2292,,,,,,,,,,,,,,
Region 3,Bulacan,Mun. of Bocaue,"Marilao Medical and Diagnostic Clinic, Inc.",PRIVATE,Non-Hospital Based,rRT pCR,,,5,RENEWED,01/01/21 - 12/31/21,13-0012-2021-CT-2,,Dr. Grig Misiona,joniv.mol.lab@gmail.com,,,,,,,,,,,,,,,
Region 3,Bulacan,San Jose Del Monte,Qualimed Hospital - San Jose Del Monte,PRIVATE,Hospital Based,rRT PCR,,,5,RENEWED,01/01/21 - 12/31/21,03-0431-21-H2-2,,,sjdm.hospital@qualimed.com.ph,(044) 307 0000,"Dr. Hautea, Ar. Leonado, Ms. Bato, Ms. Casagan, Engr. Reyes & Mr. Tonolete",,,,,,,,,,,,,
Region 3,Bulacan,Sta. Maria,Multi-Lifecare Foundation Molecular Laboratory,PRIVATE,Non-Hospital Based,rRT PCR,,"March 15, 2021",4,For Proficiency Testing,,,,,,,,,,,,,,,,,,,,
Region 2,Cagayan,"Tuguegarao City, Tuguegarao, Cagayan",Cagayan Valley CHD TB Reference Laboratory,DOH Retained,Non-Hospital Based,Cartridge-based PCR,GeneXpert,,5,RENEWED,01/01/21 - 12/31/21,02-0056-2021-CT-1,,Dr. Brendalyn A. Gallebo,chdcvdoh@yahoo.com,,,,,,,,,,,,,,,
Region 2,Cagayan,"Maharlika Highway, Carig Sur, Tuguegarao City, Cagayan",Cagayan Valley Medical Center Molecular Laboratory,DOH Retained,Hospital Based,rRT PCR,,,5,RENEWED,01/01/21 - 12/31/21,02-0263-21-H3-1,,Dr. Marvin John B. Pua,cvmc.cmps@yahoo.com,(078) 302 0000,,,,,,,,,,,,,,
Region 2,Cagayan,"City of Ilagan, Isabela",San Antonio City of Ilagan Hospital,LGU,Hospital Based,rRT PCR,,,5,RENEWED,01/01/21 - 12/31/21,13-0096-21-H3-1,,Dr. Paguirigan,sanantoniohospitalcity.ofilagan@gmail.com/ janmarvicabano@gmail.com,639052132976,,,,,,,,,,,,,,
CAR,Calinga,Tabuk City,Tabuk City Covid-19 RT-PCR Testing Laboratory,GOVERNMENT,Non-Hospital Based,rRT PCR,,"April 12, 2021",3,FOR COMPLIANCE,,,,Dr.Lacuesta,tabukcho@yahoo.com,63918 941 5100,"Ar. Leonado, Ms. Fermo, Mr. Olmedo, Ms. Padua, Ms. Foronda & Engr. Salanga",,,,,,,,,,,,,
Region 5,Camarines Sur,"BMC Rd., Concepcion Pequeña, Naga City, Camarines Sur",Bicol Medical Center,DOH Retained,Hospital Based,Cartridge-based PCR,GeneXpert,,5,RENEWED,01/01/21 - 12/31/21,05-0071-21-H2-1,,Dr. Raymundo B. Ibbarientos,bicolmedcovidlab@gmail.com,9669450261,,,,,,,,,,,,,,
Region 5,Camarines Sur,"Sipocot - Cabusao Rd, Cabusao, Camarines Sur",Bicol Region General Hospital and Geriatric Medical Center,DOH Retained,Hospital Based,rRT PCR,,,5,NEW,04/15/21 - 12/31/21,,,Dr. Sarmiento,brghgmc@gmail.com,(054) 754 2244,,,,,,,,,,,,,,
Region 6,Capiz,Roxas City,Roxas City Diagnostic and Laboratory Center,LGU,Non-Hospital Based,rRT PCR,,,5,RENEWED,01/01/21 - 12/31/21,13-0042-2020-CT-1,,Dr. Rodelio Lim,rcdalc.20@gmail.com,"09228709918, 09958197039","Engr. Lui, Ms. Fermo, Ms. Casagan, Ms. Bato & Engr. Reyes",,,,,,,,,,,,,
Region 6,Capiz,Roxas City,Roxas Memorial Provincial Hospital Molecular Laboratory,GOVERNMENT,Non-Hospital Based,rRT PCR,,,5,RENEWED,01/01/21 - 12/31/21,06-0421-21-H2-1,,Dr. Iros,rmphrxcapiz@yahoo.com,639173120899,,,,,,,,,,,,,,
Region 4A,Cavite,"Governor, D. Mangubat St, Avenue, Dasmariñas, 4114 Cavite",De La Salle Medical and Health Sciences Institute,PRIVATE,Hospital Based,rRT PCR,,,5,RENEWED,01/01/21 - 12/31/21,4A-0142-21-H3-2,,Dr. Charles Yu,covidlab@dlshsi.edu.ph,9175408675/ 09171697732,,,,,,,,,,,,,,
Region 4A,Cavite,"Baranggay Manggahan, Santusan St, General Trias, Cavite","GentriMedical Center and Hospital, Inc.",PRIVATE,Hospital Based,rRT PCR,,,5,NEW,01/29/21 - 12/31/21,4A-0337-21-H2-2,,Dr. Rolan Dela Rosa,gentrimedmolecularlab@yahoo.com,639169316757/ 639162593289,"Dr. Bonagua, Ms. Toledo, Ms. Bato, Padua & Engr. Reyes",,,,,,,,,,,,,
Region 4A,Cavite,City of Imus,Ospital ng Imus,LGU,Hospital Based,rRT PCR,,,5,RENEWED,01/01/21 - 12/31/21,4A-0031-2021-CT-1,"April 12, 2021",,alexandramromero@yahoo.com,(046) 419 8300,,,,,,,,,,,,,,
Region 4A,Cavite,Mun. of Kawit,Stark Molecular Laboratory Inc.,PRIVATE,Non-Hospital Based,rRT PCR,,,5,NEW,01/18/21/ - 12/31/21,4A-0007-2021-CT-2,,Dr. Misiona,starkmolecularlabph@gmail.com,639175556684,"Dr. Bonagua, Ms. Toledo, Ms. Casagan, Ms. Bato & Engr. Reyes",,,,,,,,,,,,,
Region 4A,Cavite,Trece Martires,General Emilio Aguinaldo Memorial Hospital,GOVERNMENT,Hospital Based,rRT PCR,,2020,3,FOR COMPLIANCE,,,,,,,"Ar. Leonado, Ms. Bato & Engr. Reyes",,,,,,,,,,,,,
Region 4A,Cavite,City of General Trias,"GentriMedical Center and Hospital, Inc.",PRIVATE,Hospital Based,Cartridge-based PCR,BDmax,"February 23, 2021",4,For Proficiency Testing,,,,,,,,,,,,,,,,,,,,
Region 7,Cebu,"Sitio Malinao, Brgy. Agus, Lapu-Lapu City",Allegiant Regional Care Hospital,PRIVATE,Hospital Based,rRT PCR,,,5,RENEWED,01/01/21 - 12/31/21,07-0048-2021-CT-2,,Dr. Mary Jean P. Loreche,archospitals.laboratory@outlook.com,0917-124-3650; 517-5061,,,,,,,,,,,,,,
Region 7,Cebu,"Ground Floor, CAP Building., Jones Ave., Cebu CIty","BioPath Clinical Diagnostic, Inc. - AFRIMS",PRIVATE,Non-Hospital Based,Cartridge-based PCR,GeneXpert,,5,RENEWED,01/01/21 - 12/31/21,07-0066-2021-CT-2,,Dr. Mary Jean P. Loreche,biopathCAP@biopath.ph,415-35-34 / 517-0825,,,,,,,,,,,,,,
Region 7,Cebu,"Ground Floor, CAP Building., Jones Ave., Cebu CIty","BioPath Clinical Diagnostic, Inc. - AFRIMS PCR laboratory",PRIVATE,Non-Hospital Based,rRT pCR,,,5,RENEWED,01/01/21 - 12/31/21,07-0066-2021-CT-2,,Dr. Mary Jean P. Loreche,biopathCAP@biopath.ph,415-35-34 / 517-0825,,,,,,,,,,,,,,
Region 7,Cebu,"40J Llorente St. Capitol site, Cebu city","BioPath Clinical Diagnostic, Inc. - CEBU",PRIVATE,Non-Hospital Based,rRT PCR,,,5,RENEWED,01/01/21 - 12/31/21,07-0075-2021-CT-2,,Ms. Lao,rmlao@biopath.ph,,,,,,,,,,,,,,,
Region 7,Cebu,"40J Llorente St. Capitol site, Cebu city","BioPath Clinical Diagnostic, Inc. - CEBU",PRIVATE,Non-Hospital Based,Cartridge-based PCR,GeneXpert,,5,NEW,02/26/21 - 12/31/21,07-0075-2021-CT-2,,Ms. Lao,rmlao@biopath.ph,,"Dr. Bonagua, Ms. Toledo, Ms. Foronda, Ms. Padua & Engr. Nolan",,,,,,,,,,,,,
Region 7,Cebu,"Cebu Doctors’ University Bldg., Osmeña Blvd., Capitol Site (Pob.)","Cebu Doctors University Hospital, Inc.",PRIVATE,Hospital Based,rRT PCR,,,5,RENEWED,01/01/21 - 12/31/21,07-0272-21-H3-2,,Dr. Alma E. Malilong,cduhlabresults2@yahoo.com / cduhlab.cdg@gmail.com,(032) 255 5555,,,,,,,,,,,,,,
Region 7,Cebu,"B. Rodriguez St, Cebu City, Cebu",Cebu TB Reference Laboratory,GOVERNMENT,Non-Hospital Based,rRT PCR,,,5,RENEWED,01/01/21 - 12/31/21,07-0027-2021-CT-1,,Dr. Mary Jean P. Loreche,casescresilda@gmail.com,254-0134,,,,,,,,,,,,,,
Region 7,Cebu,"B. Rodriguez St, Cebu City, Cebu",Cebu TB Reference Laboratory,GOVERNMENT,Non-Hospital Based,Cartridge-based PCR,GeneXpert,,5,RENEWED,01/01/21 - 12/31/21,07-0027-2021-CT-1,"January 27, 2021",Dr. Mary Jean P. Loreche,casescresilda@gmail.com,254-0134,,,,,,,,,,,,,,
Region 7,Cebu,"Don Mariano Cui Street, Fuente Osmeña Cebu City",Chong Hua Hospital,PRIVATE,Hospital Based,rRT PCR,,,5,RENEWED,01/01/21 - 12/31/21,07-0313-21-H3-2,,Dr. Ruby Rusia-Uy,josephine_jasmin_ong@chonghua.com.ph,(032) 255 8000,,,,,,,,,,,,,,
Region 7,Cebu,"Don Mariano Cui Street, Fuente Osmeña Cebu City",Chong Hua Hospital,PRIVATE,Hospital Based,Cartridge-based PCR,Biofire,,5,NEW,04/15/21 - 12/31/21,,,Dr. Ruby Rusia-Uy,josephine_jasmin_ong@chonghua.com.ph,(032) 255 8000,,,,,,,,,,,,,,
Region 7,Cebu,"Gorordo Avenue, Kamputhaw, Cebu City","Perpetual Succour Hospital of Cebu, Inc.",PRIVATE,Hospital Based,rRT PCR,,,5,RENEWED,01/01/21 - 12/31/21,07-0319-21-H3-2,,Sister Gau,sistergau17@gmail.com,,,,,,,,,,,,,,,
Region 7,Cebu,"Gorordo Avenue, Kamputhaw, Cebu City","Perpetual Succour Hospital of Cebu, Inc.",PRIVATE,Hospital Based,Cartridge-based PCR,BioFire,,5,NEW,03/17/21 - 12/31/21,07-0319-21-H3-2,,Sister Gau,sistergau17@gmail.com,,,,,,,,,,,,,,,
Region 7,Cebu,Cebu City,Philippine Red Cross - Cebu Chapter,PRIVATE,Non-Hospital Based,rRT PCR,,,5,RENEWED,01/01/21 - 12/31/21,07-0016-2021-CT-2,,,cebu@redcross.org.ph,(032) 328 9238,,,,,,,,,,,,,,
Region 7,Cebu,Lapu-Lapu City,Prime Care Alpha Covid-19 Testing Laboratory,PRIVATE,Non-Hospital Based,rRT PCR,,,5,RENEWED,01/01/21 - 12/31/21,07-0064-2021-CT-2,,,paznar.primecare@gmail.com,(032) 232 2273,,,,,,,,,,,,,,
Region 7,Cebu,Cebu City,RHS 7 Molecular Laboratory (PNP),GOVERNMENT,Non-Hospital Based,rRT PCR,,,5,NEW,03/13/21 - 12/31/21,07-0017-2021-CT-1,,Ms. Aboloc,marilouaboloc98@gmail.com,,"Dr. Aguilar,Ar. Leonado, Mr. Malbacias & Dr. Valeza",,,,,,,,,,,,,
Region 7,Cebu,Mandaue City,University of Cebu Medical Center,PRIVATE,Hospital Based,rRT PCR,,,5,RENEWED,01/01/21 - 12/31/21,07-0049-21-H2-2,"December 21, 2020",,ucmedlaboratory@gmail.com,(032) 517 0888,,,,,,,,,,,,,,
Region 7,Cebu,"B. Rodriguez St, Cebu City, 6000",Vicente Sotto Memorial Medical Center (VSMMC),DOH Retained,Hospital Based,rRT PCR,,SNL,5,RENEWED,01/01/21 - 12/31/21,07-0271-21-H3-1,,,mjloreche@yahoo.com,(032) 253 9891,,,,,,,,,,,,,,
Region 7,Cebu,Lapu Lapu City,Allegiant Regional Care Hospital,PRIVATE,Hospital Based,Cartridge-based PCR,BioFire,"March 15, 2021",3,FOR COMPLIANCE,,,,,,,"Dr. Hautea, Ms. Toledo & Engr. Soriano",,,,,,,,,,,,,
Region 12,Cotabato,"Rosary Heights,, 10 Sinsuat Ave, Region 12, Cotabato City, 9600 Maguindanao (BARMM)",Cotabato Regional Medical Center,DOH Retained,Hospital Based,Cartridge-based PCR,GeneXpert,,5,RENEWED,01/01/21 - 12/31/21,12-0098-21-H3-1,"March 25, 2021",Dr. Sherjan Kalim,crmc_12@yahoo.com,(064) 421-2340,region,,,,,,,,,,,,,
Region 12,Cotabato,"Rosary Heights,, 10 Sinsuat Ave, Region 12, Cotabato City, 9600 Maguindanao (BARMM)",Cotabato Regional Medical Center,DOH Retained,Hospital Based,rRT PCR,,,5,RENEWED,01/01/21 - 12/31/21,12-0098-21-H3-1,"March 25, 2021",Dr. Sherjan Kalim,crmc_12@yahoo.com,(064) 421-2340,"Dr. Aguilar, Mr. Malbacias, Ar. Leonado, Ms. Foronda, Ms. Padua, Engr. Tolentino & Ms. Sia",,,,,,,,,,,,,
Region 12,Cotabato,"Rizal St., Pob. B, Mlang",Mlang District Hospital,LGU,Hospital Based,rRT PCR,,,2,,,,,Dr. Mary Anne L. Bernas,cecil_dalisay@yahoo.com,,"Dr. Bonagua, Engr. Lui, Ms. Lentija, Ms. Litiatco, Ms. Foronda & Ms. Padua",,,,,,,,,,,,,
Region 11,Davao de Oro,Montevista,Davao de Oro Provincial Hospital,LGU,Hospital Based,rRT PCR,,,5,NEW,02/24/21 - 12/31/21,11-29-21-25-H1-1,,Dr. Nerilyn Kunnang,ddopmontevista1998@gmail.com,,"Ar. Leonado, Ms. Toledo, Ms. Bato, Ms. Casagan & Engr. Reyes",,,,,,,,,,,,,
Region 11,Davao Del Norte,"Tagum, 8100 Davao del Norte",Davao Regional Medical Center,DOH Retained,Hospital Based,Cartridge-based PCR,GeneXpert,,5,RENEWED,01/01/21 - 12/31/21,11-0442-21-H3-1,,Dr. Alejandro Domingo,covidlab@drmc.doh.gov.ph,0955 980 1761 / 0965 943 1300 /  0912 641 7327,,,,,,,,,,,,,,
Region 11,Davao Del Norte,"Tagum, 8100 Davao del Norte",Davao Regional Medical Center,DOH Retained,Hospital Based,rRT PCR,,,5,NEW,02/05/21 - 12/31/21,11-0442-21-H3-1,,Dr. Alejandro Domingo,molecularlab@drmc.doh.gov.ph,,"Engr. Lui, Ms. Fermo",,,,,,,,,,,,,
Region 11,Davao Del Sur,"118 Elpidio Quirino Ave, Poblacion District, Davao City, 8000 Davao del Sur",Davao Doctors Hospital,PRIVATE,Hospital Based,Cartridge-based PCR,GeneXpert,,5,RENEWED,01/01/21 - 12/31/21,11-0383-21-H3-2,,Dr. Oscar Grageda,rbremperas@ddh.com.ph info@ddh.com.ph,(082) 222 8000,,,,,,,,,,,,,,
Region 11,Davao Del Sur,"Catitipan, Barangay Buhangin, Buhangin, Dabaw, Lalawigan ng Davao del Sur",Davao International Airport Laboratory,LGU,Hospital Based,rRT PCR,,,5,NEW,01/15/21 - 12/31/21,11-0383-21-H3-2,,Dr. Oscar Grageda,chodvo.dialab@gmail.com,,"Ar. Leonado, Ms. Toledo, Ms. Bato, Ms. Casagan & Engr. Reyes",,,,,,,,,,,,,
Region 11,Davao Del Sur,Davao City,Davao One World Diagnostic Center Incorporated,PRIVATE,Non-Hospital Based,rRT PCR,,,5,RENEWED,01/01/21 - 12/31/21,11-0008-2021-CT-2,,Dr. Mary Ann Libre-Bernas,davaooneworld@gmail.com,0965 753 9240,,,,,,,,,,,,,,
Region 11,Davao Del Sur,Davao City,PRO 11 RT- PCR Molecular Laboratory,GOVERNMENT,Non-Hospital Based,rRT PCR,,,5,NEW,02/03/21 - 12/31/21,11-0010-2021-CT-2,,Dr. Kunnang,,639190918030,"Dr. Hautea, Ar. Leonado, Ms. Bato, Ms. Casagan & Engr. Reyes",,,,,,,,,,,,,
Region 11,Davao Del Sur,"Southern Philippines Medical Center, J.P. Laurel Ave, Bajada, Davao City, 8000",Southern Philippines Medical Center (SPMC),DOH Retained,Hospital Based,rRT PCR,,SNL,5,RENEWED,01/01/21 - 12/31/21,11-0024-21-H3-1,,,info@spmc.com.ph,(082) 227 2731,,,,,,,,,,,,,,
Region 11,Davao Del Sur,"Southern Philippines Medical Center, J.P. Laurel Ave, Bajada, Davao City, 8000",Southern Philippines Medical Center (SPMC) - Pop-up,DOH Retained,Hospital Based,rRT PCR,,,5,RENEWED,01/01/21 - 12/31/21,11-0024-21-H3-1,,,info@spmc.com.ph,(082) 227 2731,,,,,,,,,,,,,,
Region 11,Davao del Sur,Davao City,Vitalab Molecular Laboratory,PRIVATE,Non-Hospital Based,rRT PCR,,,5,NEW,03/30/21 - 12/31/21,11-0022-2021-CT-2,,Ms Dacquiado,vitalabmain.corp@gmail.com,639985445932,"Dr. Bonagua, Engr. Lui, Ms. Casagan, Ms. Bato & Engr. Reyes",,,,,,,,,,,,,
Region 11,Davao del Sur,Davao City,"Safeguard DNA Diagnostics, Inc.",PRIVATE,Non-Hospital Based,rRT PCR,,,5,NEW,05/03/21 - 12/31/21,,,Ms. Ola,maola@sddiph.com,639272634888,"Dr. Bonagua, Engr. Lui, Ms. Casagan, Ms. Bato & Engr. Reyes",,,,,,,,,,,,,
Region 11,Davao del Sur,Davao City,Hyatt Diagnostic System Inc.,PRIVATE,Non-Hospital Based,rRT PCR,,"January 18, 2021",3,FOR COMPLIANCE,,,,Dr. Padilla,hyattdiaginc@gmail.com,639228931002 / 639753133368,"Dr. Bonagua, Engr. Lui, Ms. Casagan, Ms. Bato & Engr. Reyes",,,,,,,,,,,,,
Region 11,Davao Del Sur,Davao City,Los Amigos Davao Laboratory,LGU,Non-Hospital Based,rRT PCR,,"October 12, 2020",3,FOR COMPLIANCE,,,,,,,"Engr. Lui, Ms. Fermo,Ms. Foronda, Ms. Padua & Engr. Tolentino",,,,,,,,,,,,,
Region 11,Davao Del Sur,Davao City,Southern Philippines Medical Center,DOH Retained,Hospital Based,Cartridge-based PCR,GeneXpert,"June 8, 2020",3,FOR COMPLIANCE,,,,,,,,,,,,,,,,,,,,
Region 1,Ilocos Norte,"Barangay 6, San Julian, Batac, Ilocos Norte",Mariano Marcos Memorial Hospital,DOH Retained,Hospital Based,Cartridge-based PCR,GeneXpert,,5,RENEWED,01/01/21 - 12/31/21,01-0160-21-H3-1,,Dr. Modesty Leano,mmmhmc.molecularlab@gmail.com,(077) 600 8000,,,,,,,,,,,,,,
Region 1,Ilocos Norte,"Barangay 6, San Julian, Batac, Ilocos Norte",Mariano Marcos Memorial Hospital,DOH Retained,Hospital Based,rRT PCR,,,5,RENEWED,01/01/21 - 12/31/21,01-0160-21-H3-1,,Dr. Modesty Leano,mmmhmc.molecularlab@gmail.com,(077) 600 8000,,,,,,,,,,,,,,
Region 6,Iloilo,Municipality of Pototan,Iloilo Provincial Hospital,GOVERNMENT,Hospital Based,rRT PCR,,,5,RENEWED,01/01/21 - 12/31/21,06-0052-2021-CT-1,,Dr. James Ravena,ngcyntiac@gmail.com / hmo@iloilo.gov.ph,639279893813,"Dr. Aguilar, Engr. Lui, Ms. Fermo, Ms. Padua, Ms. Foronda & Engr. Salanga",,,,,,,,,,,,,
Region 6,Iloilo,Iloilo City,Metro Iloilo Hospital and Medical Center,PRIVATE,Hospital Based,rRT PCR,,,5,RENEWED,01/01/21 - 12/31/21,06-0443-21-H2-2,,Dr. Florie Jean Licera,mihmci.cobid19lab@gmail.com,(033) 327 1527,,,,,,,,,,,,,,
Region 6,Iloilo,Passi City,Philippine Red Cross Passi City Molecular Laboratory,PRIVATE,Non-Hospital Based,rRT PCR,,,5,RENEWED,01/01/21 - 12/31/21,06-0066-2021-CT-2,,Ms. ChrisAnn Mendoza,prcpassimolecularlab@gmail.com,639202308444,,,,,,,,,,,,,,
Region 6,Iloilo,Mandurriao,Qualimed Health Network - Iloilo,PRIVATE,Hospital Based,rRT PCR,,,5,RENEWED,01/01/21 - 12/31/21,06-0381-21-H2-2,,,qualimediloilo@qualimed.com.ph,(033) 500 4000,,,,,,,,,,,,,,
Region 6,Iloilo,Iloilo City,Uswag Iloilo Molecular Laboratory,LGU,Non-Hospital Based,rRT PCR,,,5,RENEWED,01/01/21 - 12/31/21,06-0035-2021-CT-1,,Dr. Ong,uswagiloilomolecularlaboratory@gmail.com ,639487900009,,,,,,,,,,,,,,
Region 6,Iloilo,"Q. Abeto Street, Mandurriao, Iloilo City",Western Visayas Medical Center (WVMC),DOH Retained,Hospital Based,rRT PCR,,SNL,5,RENEWED,01/01/21 - 12/31/21,06-0386-21-H3-1,"December 21, 2020",,wvmcsnl@yahoo.com,(02) 8942 6843,,,,,,,,,,,,,,
Region 6,Iloilo,"E. Lopez St., Jaro, Iloilo City",Western Visayas State University Medical Center,GOVERNMENT,Hospital Based,rRT PCR,,,5,RENEWED,01/01/21 - 12/31/21,06-0386-21-H3-1,,,wvsumc.molecularlab@gmail.com,,,,,,,,,,,,,,,
Region 2,Isabela,City of Ilagan,Philippine Red Cross Isabela Molecular Laboratory,PRIVATE,Non-Hospital Based,rRT PCR,,,5,RENEWED,01/01/21 - 12/31/21,02-0065-2021-CT-2,,Yunik Lasquero,isabela@redcross.org.ph ,639362874712,"Dr. Aguilar, Mr. Malbacias, Ms. Foronda, Ms. Padua & Engr. Salanga",,,,,,,,,,,,,
Region 2,Isabela,"Zamora St, Santiago, 3311 Isabela",Southern Isabela Medical Center,DOH Retained,Hospital Based,rRT PCR,,,5,RENEWED,01/01/21 - 12/31/21,02-0264-21-H3-1,,,"sigh_coh@yahoo.com>,
southern_isabela09@yahoo.com",(078) 305 0459,,,,,,,,,,,,,,
Region 1,La Union,"Parian, San Fernando City, La Union Region 1",Ilocos Training Regional Medical Center,DOH Retained,Hospital Based,rRT PCR,,,5,RENEWED,01/01/21 - 12/31/21,01-0358-21-H3-1,,Dr. Brenda Rosuman,itrmc.mbl@gmail.com,(072) 607 6418,,,,,,,,,,,,,,
Region 1,La Union,"Parian, San Fernando City, La Union Region 1",Ilocos Training Regional Medical Center,DOH Retained,Hospital Based,Cartridge-based PCR,GeneXpert,,5,RENEWED,01/01/21 - 12/31/21,01-0358-21-H3-1,,Dr. Jimmy Rosales,itrmc.mbl@gmail.com,(072) 607 6418,,,,,,,,,,,,,,
Region 4A,Laguna,"Crossing AH26, Real, Calamba, 4027 Laguna",Calamba Medical Center,PRIVATE,Hospital Based,rRT PCR,,,5,RENEWED,01/01/21 - 12/31/21,4A-143-21-H2-2,,Dr. Jennifer Torres,"jentorresmd@gmail.com , marsandrego@cmc.ph",(078) 302 0000,,,,,,,,,,,,,,
Region 4A,Laguna,"Gen. Luna St. Brgy. IV-A San Pablo City, Laguna",Laguna City Provincial Hospital-San Pablo City District Hospital,LGU,Hospital Based,rRT pCR,,,5,RENEWED,01/01/21 - 12/31/21,4A-0046-2021-CT-1,,Dr. Imelda Marie Fremielle Flores-Palacol,,,,,,,,,,,,,,,,
Region 4A,Laguna,Sta. Cruz,"Laguna Holy Family Hospital, Inc - Satellite Molecular Laboratory",PRIVATE,Hospital Based,rRT PCR,,,5,NEW,03/12/21 - 12/31/21,4A-0018-2021-CT-2,,Ms. Dela Torre,lhfh2014@gmail.com / pauleenmagallona0629@gmail.com,639062246657,"Dr. Bonagua, Engr. Lui, Ms. Casagan, Ms. Bato & Engr. Reyes",,,,,,,,,,,,,
Region 4A,Laguna,Sta. Cruz,"Laguna Holy Family Hospital, Inc.",PRIVATE,Hospital Based,rRT PCR,,,5,RENEWED,01/01/21 - 12/31/21,4A-0044-2021-CT-2,,Dr. Azeus Silva,lhfhimolecularlaboratory2020@gmail.com,9062246657,"Dr. Bonagua, Ms. Toledo, Ms. Foronda, Ms. Padua & Engr. Salanga",,,,,,,,,,,,,
Region 4A,Laguna,City of Sta. Rosa,Qualimed Hospital Sta. Rosa,PRIVATE,Hospital Based,rRT PCR,,,5,RENEWED,01/01/21 - 12/31/21,4A-0410-21-H2-2,,,,(049303) 0000,,,,,,,,,,,,,,
Region 4A,Laguna,"Maharlika Highway, Brgy. San Rafael, San Pablo City, Laguna 4000",San Pablo College Medical Center,PRIVATE,Hospital Based,rRT PCR,,,5,RENEWED,01/01/21 - 12/31/21,13-0002-2021-CT-2,,,inquiry@spcmc.com.ph,"(049) 562-0726 to 8
(049) 521-2898",,,,,,,,,,,,,,
Region 4A,Laguna,City of Sta. Rosa,Sta. Rosa CHO,LGU,Non-Hospital Based,Cartridge-based PCR,GeneXpert,,5,RENEWED,01/01/21 - 12/31/21,4A-0073-2021-CT-2,,Mariza Garing,garingmb1017@gmail.com,,,,,,,,,,,,,,,
Region 4A,Laguna,"Pedro R. Sandoval Ave, Los Baños, Laguna",UPLB Covid-19 Molecular Laboratory,GOVERNMENT,Hospital Based,rRT PCR,,,5,RENEWED,01/01/21 - 12/31/21,4A-0041-2021-CT-2,,,ovcre.uplb@up.edu.ph,,,,,,,,,,,,,,,
Region 10,Lanao del Norte,Mun. of Kapatagan,Lanao Del Norte Covid-19 Testing Laboratory,LGU,Non-Hospital Based,rRT PCR,,,5,RENEWED,01/01/21 - 12/31/21,10-0034-2021-CT-2,,Dr. Neal Rana,ldncovidlab@gmail.com,0917-7776499,REGION X,,,,,,,,,,,,,
Region 10,Lanao del Norte,Iligan City,Gregorio T. Lluch Memorial Hospital,GOVERNMENT,Hospital Based,rRT PCR,,"March 24, 2021",3,FOR COMPLIANCE,,,,,,,,,,,,,,,,,,,,
BARMM,Lanao Del Sur,"Marawi City, Lanao del Sur",Amai Pakpak Medical Center,DOH Retained,Hospital Based,Cartridge-based PCR,GeneXpert,,5,RENEWED,01/01/21 - 12/31/21,10-0108-21-H2-1,,Dr. Aslia M. Mapandi,apmc_marawi@yahoo.com / apmcmollab@gmail.com,(63) 9171582120,,,,,,,,,,,,,,
BARMM,Lanao Del Sur,"Marawi City, Lanao del Sur",Amai Pakpak Medical Center,DOH Retained,Hospital Based,rRT PCR,,,5,RENEWED,01/01/21 - 12/31/21,10-0108-21-H2-1,,Dr. Aslia M. Mapandi,apmc_marawi@yahoo.com /apmcmollab@gmail.com,(63) 9171582120,Ar. Rene,,,,,,,,,,,,,
Region 8,Leyte,"M.H. Del Pilar St, Downtown, Tacloban City, Leyte",Divine Word Hospital,PRIVATE,Hospital Based,rRT PCR,,,5,RENEWED,01/01/21 - 12/31/21,08-0374-21-H3-2,,Dr. Lorenzo Abanilla,divinewordhospitaltacloban@gmail.com,(044) 793 0034,,,,,,,,,,,,,,
Region 8,Leyte,"Magsaysay Blvd, Downtown, Tacloban City",Eastern Visayas Regional Covid-19 Testing Center,DOH Retained,Hospital Based,rRT PCR,,,5,RENEWED,01/01/21 - 12/31/21,08-0037-2021-CT-2,,Dr. Cleocita Parilla-Portula,evrmccao@gmail.com,0935 678 9109,"Dr. Aguilar, Mr. Malbacias, Ar. Leonado, Ms. Foronda, Ms. Padua and Engr Tolentino",,,,,,,,,,,,,
Region 8,Leyte,Ormoc City,OSPA - Farmers' Medical Center,PRIVATE,Hospital Based,rRT PCR,,,5,RENEWED,01/01/21 - 12/31/21,08-0454-21-H2-2,,Riza Lagutin,ospafmc@gmail.com,639173084403,"Dr. Aguilar, Mr. Malbacias, Ms. Foronda & Engr. Salanga",,,,,,,,,,,,,
BARMM,Maguindanao,Datu Hoffer,Maguindanao Provincial Hospital,GOVERNMENT,Hospital Based,rRT PCR,,"February 2, 2021",3,FOR COMPLIANCE,,,,,,,"Mr. Olmedo, Ar. Leonado, Ms. Fermo, Ms. Padua, Ms. Foronda & Engr. Salanga",,,,,,,,,,,,,
NCR,Metro Manila,Las Pinas,"A Star Laboratories, Inc.",PRIVATE,Non-Hospital Based,rRT PCR,,,5,RENEWED,01/01/21 - 12/31/21,13-0074-2021-CT-2,,Dr. Raymundo W. Lo,zdiagnostics4@gmail.com,,,,,,,,,,,,,,,
NCR,Metro Manila,Makati City,Al Molecular Diagnostic Laboratory,PRIVATE,Non-Hospital Based,rRT PCR,,,5,RENEWED,01/01/21 - 12/31/21,13-0020-2021-CT-2,,Dr. Francia Victoria A. Delos Reyes,Almolecularlab@gmail.com,9177033016,,,,,,,,,,,,,,
NCR,Metro Manila,Makati City,Al Molecular Diagnostic Laboratory,PRIVATE,Non-Hospital Based,Cartridge-based PCR,Easynat,,5,NEW,02/26/21 - 12/31/21,13-0013-2021-CT-2,,Dr. Francia Victoria A. Delos Reyes,Almolecularlab@gmail.com,,,,,,,,,,,,,,,
NCR,Metro Manila,"Sumulong Highway Sto. Nino, Marikina, 1800 Metro Manila",Amang Rodriguez Memorial Center,DOH Retained,Hospital Based,Cartridge-based PCR,GeneXpert,,5,RENEWED,01/01/21 - 12/31/21,13-0208-21-H3-1,,Dr. Ricardo S. Quimbo,pathologymole.armmc@gmail.com,(02) 8941 5854,,,,,,,,,,,,,,
NCR,Metro Manila,"Sumulong Highway Sto. Nino, Marikina, 1800 Metro Manila",Amang Rodriguez Memorial Hospital,DOH Retained,Hospital Based,rRT PCR,,,5,RENEWED,01/01/21 - 12/31/21,13-0208-21-H3-1,,Dr. Ricardo S. Quimbo,pathologymole.armmc@gmail.com,(02) 8941 5854,,,,,,,,,,,,,,
NCR,Metro Manila,"San Jose St, Intramuros, Manila, 1002 Metro Manila",Amosup Seamen's Hospital,PRIVATE,Hospital Based,Cartridge-based PCR,GeneXpert,,5,RENEWED,01/01/21 - 12/31/21,13-0070-21-H3-2,,Dr. Gilbert C. Gonzales,shmcomdept@gmail.com / shosp-mnl@amosup.org,(02) 8527 8116,,,,,,,,,,,,,,
NCR,Metro Manila,"MGEN M. Castaneda St., Fort Bonifacio, Taguig City",Army General Hospital Molecular Laboratory,GOVERNMENT,Hospital Based,rRT PCR,,,5,RENEWED,01/01/21 - 12/31/21,13-0046-2021-CT-1,,Dr. Sierra Rom S. Hernandez,aghmolecularlaboratory@gmail.com / oacs2013@yahoo.com,(02) 8845 9555 loc 5606,,,,,,,,,,,,,,
NCR,Metro Manila,"2205 Civic Dr, Alabang, Muntinlupa, 1780 Metro Manila",Asian Hospital & Medical Center,PRIVATE,Hospital Based,rRT PCR,,,5,RENEWED,01/01/21 - 12/31/21,13-0178-21-H3-2,,Dr. Ma. Theresa Chan-Chan Castillo,sadiviso@asianhospital.com / info@asianhospital.com,(02) 8771 9000,,,,,,,,,,,,,,
NCR,Metro Manila,"Ateneo De Manila  University, Katipunan Ave, Quezon City, 1108 Metro Manila",Ateneo Molecular Pathology Laboratory,PRIVATE,Non-Hospital Based,rRT PCR,,,5,NEW,03/23/21 - 12/31/21,13-0019-2021-CT-2,,Mr. Malabana,dmalabana@ateneo.edu,(02) 8426 6001 loc. 4304,,,,,,,,,,,,,,
NCR,Metro Manila,"Medical Plaza, Makati City, Metro Manila","BioPath Clinical Diagnostic, Inc.",PRIVATE,Non-Hospital Based,rRT PCR,,,5,RENEWED,01/01/21 - 12/31/21,13-0059-2021-CT-2,,Dr. Carmela T. Reyes,laboratory@biopath.ph,09175692330 / 0917 5696584,,,,,,,,,,,,,,
NCR,Metro Manila,"Medical Plaza, Makati City, Metro Manila","BioPath Clinical Diagnostic, Inc.",PRIVATE,Non-Hospital Based,Cartridge-based PCR,GeneXpert,,5,RENEWED,01/01/21 - 12/31/21,13-0059-2021-CT-2,,Dr. Carmela T. Reyes,laboratory@biopath.ph,(02) 8886-4496,,,,,,,,,,,,,,
NCR,Metro Manila,"Unit G4, Garden Heights Condominium, E Rodriguez Sr. Ave, Quezon City, Metro Manila",Biopath Clinical Diagnostics Inc. (E. Rodriguez),PRIVATE,Non-Hospital Based,rRT PCR,,,5,RENEWED,01/01/21 - 12/31/21,13-0057-2021-CT-2,,Dr. Rhoderick M. Cruz,biopathqc@biopath.ph,0917 5692330 / 02-7910-0767,"Engr. Retirva, Mr. Petines, Ms. Lee, Mr. Medina, Engr. Vicente & Ms. Reyes",,,,,,,,,,,,,
NCR,Metro Manila,"Unit G4, Garden Heights Condominium, E Rodriguez Sr. Ave, Quezon City, Metro Manila",Biopath Clinical Diagnostics Inc. (E. Rodriguez),PRIVATE,Non-Hospital Based,Cartridge-based PCR,GeneXpert,,5,RENEWED,01/01/21 - 12/31/21,13-0057-2021-CT-2,,Dr. Rhoderick M. Cruz,biopathqc@biopath.ph,0917 5692330 / 02-7910-0767,"Engr. Retirva, Mr. Petines, Ms. Lee, Mr. Medina, Engr. Vicente & Ms. Reyes",,,,,,,,,,,,,
NCR,Metro Manila,"Camarin Rd, Barangay 177, Caloocan, Metro Manila",Caloocan City North Medical Center,LGU,Non-Hospital Based,rRT PCR,,,5,NEW,01/18/21 - 12/31/21,13-0005-2021-1-1-1,,Dr. Qareem G. Pido,ccnmcmolelab@gmail.com,828823397,"Engr. Lui, Ms. Fermo, Ms. Padua, Ms. Foronda, Engr. Tolentino.",,,,,,,,,,,,,
NCR,Metro Manila,"10 Wilson, Greenhills West, San Juan, 1502 Metro Manila",Cardinal Santos Medical Center,PRIVATE,Hospital Based,rRT PCR,,,5,RENEWED,01/01/21 - 12/31/21,13-0060-21-H3-2,,Dr. Paulo Giovanni L. Mendoza,cdelrosario@csmc.ph / idelrosario@csmc.ph,(02) 8727 0001,,,,,,,,,,,,,,
NCR,Metro Manila,"286 Blumentritt Rd, Santa Cruz, Manila, 1014 Metro Manila",Chinese Gen. Hospital,PRIVATE,Hospital Based,rRT PCR,,,5,RENEWED,01/01/21 - 12/31/21,13-0173-21-H3-2,"April 12, 2021",Dr. Evelina Lagamayo,dragracepadilla@yahoo.com / molepathcghmc@gmail.com,(02) 8711 4141,,,,,,,,,,,,,,
NCR,Metro Manila,"286 Blumentritt Rd, Santa Cruz, Manila, 1014 Metro Manila",Chinese Gen. Hospital,PRIVATE,Hospital Based,Cartridge-based PCR,BioFire,,5,NEW,03/01/21 - 12/31/21,13-0173-21-H3-2,,Dr. Evelina Lagamayo,dragracepadilla@yahoo.com / molepathcghmc@gmail.com,,,,,,,,,,,,,,,
NCR,Metro Manila,"201 E Rodriguez Sr. Ave, Quezon City, 1112 Metro Manila",De Los Santos Medical Center,PRIVATE,Hospital Based,rRT pCR,,,5,RENEWED,01/01/21 - 12/31/21,13-0023-21-H3-2,,Dr. Herbert Manaois,avdellova@dlsmc.ph,9260319053,,,,,,,,,,,,,,
NCR,Metro Manila,"Unit 204 Highpointe Medical Hub, 241 Shaw Blvd, Mandaluyong, Metro Manila",Detoxicare Molecular Diagnostics Laboratory,PRIVATE,Non-Hospital Based,rRT PCR,,,5,RENEWED,01/01/21 - 12/31/21,13-0003-2021-CT-2,"April 2, 2021",Dr. Daphne Ang,info@molecularlabph.com,(02) 8897 6994,,,,,,,,,,,,,,
NCR,Metro Manila,"Administration Site, St Joseph, 187 Tala, Caloocan, 1427",Dr. Jose N. Rodriguez Memorial Hospital and Sanitarium (TALA),LGU,Hospital Based,Cartridge-based PCR,GeneXpert,,5,RENEWED,01/01/21 - 12/31/21,13-0110-21-H3-1,"March 25, 2021",Dr. Mirian Viterbo,djnrmhsmolecularlab@gmail.com,(02) 8294 2571,,,,,,,,,,,,,,
NCR,Metro Manila,"Administration Site, St Joseph, 187 Tala, Caloocan, 1427",Dr. Jose N. Rodriguez Memorial Hospital and Sanitarium (TALA),LGU,Hospital Based,rRT PCR,,,5,RENEWED,01/01/21 - 12/31/21,13-0110-21-H3-1,"March 25, 2021",Dr. Mirian Viterbo,djnrmhsmolecularlab@gmail.com,(02) 8294 2571,,,,,,,,,,,,,,
NCR,Metro Manila,"East Avenue Medical Center, East Ave, Diliman, Quezon City, 1100",East Avenue Medical Center ,DOH Retained,Hospital Based,rRT PCR,,,5,RENEWED,01/01/21 - 12/31/21,13-0039-21-H3-1,,Dr. Mary Yvonette Nerves,eamcmolecularlab@gmail.com,639209607728,"Dr. Bonagua, Ms. Toledo",,,,,,,,,,,,,
NCR,Metro Manila,City of Manila,El Roi Molecular Diagnostic Laboratory,PRIVATE,Non-Hospital Based,rRT PCR,,,5,RENEWED,01/01/21 - 12/31/21,13-0022-2021-CT-2,,Dr. Frank Gerald Pagdunzulan,molecularlab@elroi.com.ph,(02) 961-4647,"Dr. Bonagua, Ms. Toledo, Ms. Foronda, Ms. Padua & Engr. Salanga",,,,,,,,,,,,,
NCR,Metro Manila,Manila,"Ermita Molecular Diagnostic Laboratory, Inc.",PRIVATE,non-Hospital Based,rRT PCR,,,5,NEW,01/07/21 - 12/31/21,13-0068-2021-CT-2,,Dr. Edith Tria,ermitamolec@gmail.com,,,,,,,,,,,,,,,
NCR,Metro Manila,"Commonwealth Ave, New Era, Quezon City, Metro Manila","F.Y. Manalo Medical Foundation, Inc. (formerly New Era Hospital)",PRIVATE,Hospital Based,rRT PCR,,,5,NEW,02/04/21 - 12/31/21,13-0114-21-H2-2,,Dr. Araceli Jacoba,newerageneralhospital@gmail.com,,"Dr. Bonagua, Ms. Toledo, Ms. Ava",,,,,,,,,,,,,
NCR,Metro Manila,"11 Banawe St, Quezon City, 048619 ",Fe del Mundo Medical center,PRIVATE,Hospital Based,rRT PCR,,,5,RENEWED,01/01/21 - 12/31/21,13-0163-21-H3-2,,Dr. Pedrito Tagayuna,engineering@fedelmundo.com.ph,(02) 8712 0845,,,,,,,,,,,,,,
NCR,Metro Manila,City of Manila,First Aide Diagnostic Center,PRIVATE,Non-Hospital Based,rRT PCR,,,5,RENEWED,01/01/21 - 12/31/21,13-0007-2021-CT-2,,Dr. Frederick Bandola,firstaidelaboratory@gmail.com,0917-8307899,"Engr. Lui, Ms. Fermo, Ms. Reyes, Ms. Lee, Mr. Medina & Engr. Vicente",,,,,,,,,,,,,
NCR,Metro Manila,Mandaluyong City,Health Delivery Systems,PRIVATE,Non-Hospital Based,rRT PCR,,,5,RENEWED,01/01/21 - 12/31/21,13-0005-2021-CT-2,,Dr. Rodelio Lim,brixtonlab@healthfirst.com.ph,(02) 8657 2200,,,,,,,,,,,,,,
NCR,Metro Manila,"1157 Chino Roces Ave, Makati","Health Metrics, Inc.",PRIVATE,Non-Hospital Based,rRT PCR,,,5,RENEWED,01/01/21 - 12/31/21,13-0027-2021-CT-2,,Dr. Neila Cejudo,healthmetrics.moleclab@gmail.com,(02) 7795 1234,,,,,,,,,,,,,,
NCR,Metro Manila,Mandaluyong City,Healthway Medical,PRIVATE,Non-Hospital Based,rRT PCR,,,5,NEW,01/18/21 - 12/31/21,13-0008-2021-CT-2,,Dr. Ma.Teresa Barzaga,hannahtelesforo@gmail.com,,,,,,,,,,,,,,,
NCR,Metro Manila,Pasay City,Heartland Medical and Diagnostic Center,PRIVATE,Non-Hospital Based,rRT PCR,,,5,NEW,04/26/21 - 12/31/21,,,,molecular@heartland.ph,639273472509,"Mr. Olmedo, Ar. Leonado & Ms. Fermo",,,,,,,,,,,,,
NCR,Metro Manila,Quezon City,Hero Laboratories,PRIVATE,Non-Hospital Based,rRT PCR,,,5,RENEWED,01/01/21 - 12/31/21,13-0024-2021-CT-2,,Dr. Carl Chester Floyd Go,herolab.cubao@gmail.com,639959186298/ 639178298913/ 639953582152,"Dr. Bonagua, Mr. Favis, Ms. Padua, Ms. Foronda & Engr. Salanga",,,,,,,,,,,,,
NCR,Metro Manila,Quezon City (Amoranto),Hi-Precision,PRIVATE,Non-Hospital Based,rRT PCR,,,5,RENEWED,01/01/21 - 12/31/21,13-0017-2020-CT-2,,Dr. Maria Lourdes P. Santos,esmeraldachua@hiprecision.com.ph,(02) 3415 2622,,,,,,,,,,,,,,
NCR,Metro Manila,Paranaque City,"Interpharma Solutions Philippines, Inc.",PRIVATE,Non-Hospital Based,rRT PCR,,,5,RENEWED,01/01/21 - 12/31/21,13-0060-2021-CT-2,"April 2, 2021",Dr. Valerie Ann Tesoro,covid19molecularlab@zuelligpharma.com,639175502339,"Engr. Lui, Ms. Fermo, Ms. Bato, Ms. Casagan & Engr. Reyes",,,,,,,,,,,,,
NCR,Metro Manila,Manila,Intramuros Molecular Laboratory,PRIVATE,Non-Hospital Based,rRT PCR,,,5,NEW,01/08/21 -12/31/21,13-0002-2021-CT-2,,Dr. Rosanna Tungol,ninomd.molecular@gmail.com,,,,,,,,,,,,,,,
NCR,Metro Manila,Makati City,IOM- Manila Health Centre Laboratory,PRIVATE,Non-Hospital Based,Cartridge-based PCR,GeneXpert,,5,RENEWED,01/01/21 - 12/31/21,13-0009-2021-CT-2,,Dr. Dario Defensor,kmburgonio@iom.int,0917 593 4688,,,,,,,,,,,,,,
NCR,Metro Manila,"Rizal Ave, Santa Cruz, Manila, Metro Manila",Jose R. Reyes Memorial Medical Center,DOH Retained,Hospital Based,Cartridge-based PCR,GeneXpert,,5,NEW,01/11/21 - 12/31/21,13-0042-21-H3-1,,Dr. Frack Gerald Pagdunzulan,bj_tsutsugamushi@yahoo.com,,,,,,,,,,,,,,,
NCR,Metro Manila,Pasay City,JT Cenica Medical Health System,PRIVATE,Non-Hospital Based,rRT PCR,,,5,RENEWED,01/01/21 - 12/31/21,13-0050-2021-CT-2,,Dr. Paulo Antonio Clemente,jtcenica.healthsystem01@gmail.com,639178128039/ 639337291334,,,,,,,,,,,,,,
NCR,Metro Manila,Quezon City,Kairos Diagnostics Laboratory,PRIVATE,Non-Hospital Based,rRT PCR,,,5,RENEWED,01/01/21 - 12/31/21,13-0017-2021-CT-2,,Dr. Herbert Manaois,davidcatapia@yahoo.com / kairosmolecularlab@gmail.com,9682249658,,,,,,,,,,,,,,
NCR,Metro Manila,Makati City,Kaiser Medical Center Inc.,PRIVATE,Non-Hospital Based,rRT PCR,,,5,RENEWED,01/01/21 - 12/31/21,13-0010-2021-CT-2,,Dr. Rodelio Lim,quality.compliance@kaisermedcenter.com,9178513028,"Ar. Leonado, Ms. Toledo, Ms. Foronda, Ms. Reyes, Ms. Padua & Engr. Reyes",,,,,,,,,,,,,
NCR,Metro Manila,"Diego Cera Ave, Bernabe Compound, Pulanglupa I, Las Piñas City Metro, Manila, Las Pinas",Las Pinas General Hospital and Satellite Trauma Center,DOH Retained,Hospital Based,Cartridge-based PCR,GeneXpert,,5,RENEWED,01/01/21 - 12/31/21,13-0200-21-H2-1,,Dr. Edna May Go,lpghstc@gmail.com,(02) 8873 0557,,,,,,,,,,,,,,
NCR,Metro Manila,"Diego Cera Ave, Bernabe Compound, Pulanglupa I, Las Piñas City Metro, Manila, Las Pinas",Las Pinas General Hospital and Satellite Trauma Center,DOH Retained,Hospital Based,rRT PCR,,,5,RENEWED,01/01/21 - 12/31/21,13-0200-21-H2-1,,Dr. Edna May Go,lpghstc@gmail.com,(02) 8873 0557,"Ar. Leonado, Ms. Toledo, Ms. Casagan, Ms. Bato, Engr. Reyes",,,,,,,,,,,,,
NCR,Metro Manila,Taguig City,Lifecore Biointegrative Inc.,PRIVATE,Non-Hospital Based,rRT PCR,,,5,RENEWED,01/01/21 - 12/31/21,13-0026-2021-CT-2,,Dr. Gil Ryan Galvan,miketobias_umali@yahoo.com,,"Mr. Favis, Ar. Rabe, Ms. Bato & Engr. Reyes",,,,,,,,,,,,,
NCR,Metro Manila,"Quezon Ave, Diliman, Quezon City",Lung Center of the Philippines (LCP),DOH Retained,Hospital Based,rRT PCR,,SNL,5,RENEWED,01/01/21 - 12/31/21,13-0135-21-H3-1,,Dr. Ma. Teresa Barzaga,lcpcovtestgroup@gmail.com,(02) 8924 6101,,,,,,,,,,,,,,
NCR,Metro Manila,"Quezon Ave, Diliman, Quezon City",Lung Center of the Philippines (LCP),DOH Retained,Hospital Based,Cartridge-based PCR,GeneXpert,SNL,5,RENEWED,01/01/21 - 12/31/21,13-0135-21-H3-1,,Dr. Ma. Teresa Barzaga,lcpgenexpertlab@gmail.com,(02) 8924 6101,,,,,,,,,,,,,,
NCR,Metro Manila,"2 Amorsolo Street, Legazpi Village, Makati, 1229 Kalakhang Maynila",Makati Medical Center (HB),PRIVATE,Hospital Based,rRT PCR,,,5,RENEWED,01/01/21 - 12/31/21,13-0004-21-H3-2,,Dr. Warren Welby Koa,medical.director@makatimed.net.ph,(02) 8888 8999,,,,,,,,,,,,,,
NCR,Metro Manila,City of Manila,Manila Diagnostic Center for OFW Inc.,PRIVATE,Non-Hospital Based,rRT PCR,,,5,RENEWED,01/01/21 - 12/31/21,13-0029-2021-CT-2,,Dr. Dexter Ledesma,maniladiagnostic@gmail.com,639178550875,"Dr. Bonagua, Ms. Toledo, Ms. Lee, Mr. Medina & Engr. Salanga",,,,,,,,,,,,,
NCR,Metro Manila,City of Manila,Manila Doctors Hospital,PRIVATE,Hospital Based,rRT PCR,,,5,RENEWED,01/01/21 - 12/31/21,13-0207-21-H3-2,,Dr. Ma. Cecilia Lim,info@maniladoctors.com.ph rhalden.qrmo@gmail.com,(02) 8558 0888,"Dr. Hautea, Ar. Leonado",,,,,,,,,,,,,
NCR,Metro Manila,Marikina City,Manila Healthtek Inc.,PRIVATE,Non-Hospital Based,rRT PCR,,,5,RENEWED,01/01/21 - 12/31/21,13-0014-2021-CT-2,,Dr. Rose Loue Marie Agbay,manilahealthtek.labs@gmail.com,(02) 7950 5026,"Dr. Bonagua, Engr. Retirva, Ms. Padua, Ms. Foronda, Engr. Tolentino & Ms. Reyes",,,,,,,,,,,,,
NCR,Metro Manila,"80 Bayan-Bayanan Ave, Marikina",Marikina Molecular Diagnostic Laboratory,LGU,Non-Hospital Based,rRT PCR,,,5,RENEWED,01/01/21 - 12/31/21,13-0054-2021-CT-1,,Dr. Justine Alessandra Uy,marikinacovidlab@gmail.com,,,,,,,,,,,,,,,
NCR,Metro Manila,Pasay City,"Marilao Medical and Diagnostic Clinic, Inc.",PRIVATE,Non-Hospital Based,rRT PCR,,,5,NEW,02/16/21 - 12/31/21,13-0012-2021-CT-2,,Dr. Paulo Enrico Belen,mmdcpasay@gmail.com,639773881408,,,,,,,,,,,,,,
NCR,Metro Manila,"National Kidney and Transplant Institute, East Ave, Diliman, Quezon City",National Kidney and Transplant Institute,DOH Retained,Hospital Based,rRT PCR,,,5,RENEWED,01/01/21 - 12/31/21,13-0203-21-H3-1,,Dr. Pamela Delos Reyes - Murillo,nkticovid@gmail.com,(02) 8981 0300,,,,,,,,,,,,,,
NCR,Metro Manila,"National Kidney and Transplant Institute, East Ave, Diliman, Quezon City",National Kidney and Transplant Institute,DOH Retained,Hospital Based,Cartridge-based PCR,GeneXpert,,5,RENEWED,01/01/21 - 12/31/21,13-0203-21-H3-1,,Dr. Pamela Delos Reyes - Murillo,nkticovid@gmail.com,(02) 8981 0300,,,,,,,,,,,,,,
NCR,Metro Manila,Pasig City,New World Diagnostics Inc. Premium Medical Branch,PRIVATE,Non-Hospital Based,rRT PCR,GeneXpert,,5,RENEWED,01/01/21 - 12/31/21,13-0021-2021-CT-2,,Dr. Daphne Ang,daphnechuaang@yahoo.com,8942-9849 / 8942-9719,"Dr. Bonagua, Engr. Retirva, Ms. Padua, Ms. Foronda, Engr. Tolentino & Ms. Reyes",,,,,,,,,,,,,
NCR,Metro Manila,Pasig City,New World Diagnostics Inc. Premium Medical Branch,PRIVATE,Non-Hospital Based,Cartridge-based PCR,Iponatics,,5,NEW,03/25/21 - 12/31/21,13-0021-2021-CT-2,,Dr. Daphne Ang,daphnechuaang@yahoo.com,8942-9849 / 8942-9719,,,,,,,,,,,,,,
NCR,Metro Manila,City of Manila,"Olayn Medical Laboratory, Inc",PRIVATE,Hospital Based,rRT PCR,,,5,NEW,01/13/21 - 12/31/21,13-0014-2021-CT-2,,Dr. Susan Quiaoit,medisensemanila@gmail.com,,"Engr. Retirva, Mr. Dela Cruz, Ms. Bato, Ms. Casagan & Engr. Reyes",,,,,,,,,,,,,
NCR,Metro Manila,City of Manila,"Olayn Medical Laboratory, Inc",PRIVATE,Hospital Based,Cartridge-based PCR,Easynat,,5,NEW,03/10/21 - 12/31/21,13-0014-2021-CT-2,,Dr. Susan Quiaoit,medisensemanila@gmail.com,,"Dr. Hautea, Ms. Toledo & Mr. Malbacias",,,,,,,,,,,,,
NCR,Metro Manila,Muntinlupa City,Ospital ng Muntinlupa,LGU,Hospital Based,rRT PCR,,,5,RENEWED,01/01/21 - 12/31/21,13-0201-21-H3-1,,Marisa Manuel,,639173938556,"Dr. Bonagua, Mr. Favis, Ms. Sy, Mr. Medina & Engr. Nolan",,,,,,,,,,,,,
NCR,Metro Manila,Paranaque City,Ospital ng Paranaque District II,LGU,Non-Hospital Based,rRT PCR,,,5,NEW,02/08/21 - 12/31/21,13-0011-2021-CT-1,,Dr. Ferdinand Galang,,639229003755,"Dr. Hautea, Ar. Leonado, Ms. Casagan, Ms. Bato, Engr. Reyes",,,,,,,,,,,,,
NCR,Metro Manila,Pasig City,Pasig City Children's Hospital - Child's Hope,LGU,Hospital Based,rRT PCR,,,5,RENEWED,01/01/21 - 12/31/21,13-0043-2021-CT-1,,,sarahdataylim@gmail.com,(02) 8643 2222,,,,,,,,,,,,,,
NCR,Metro Manila,Makati City,PCR MED Molecular Laboratory,PRIVATE,Non-Hospital Based,rRT PCR,,,5,NEW,01/11/21 - 12/31/21,13-0003-2021-CT-2,,,pcrmed@benchmail.ph,,"Engr. Lui, Ms. Fermo, Ms. Casagan, Ms. Bato & Engr. Archie",,,,,,,,,,,,,
NCR,Metro Manila,City of Manila,Philipine Medical Diagnostic & Laboratory Center Corporation,PRIVATE,Non-Hospital Based,rRT PCR,,,5,NEW,03/17/21 - 12/31/21,13-0016-2021-CT-2,,Dr. Herbert Manaois,philmed.dlcc@gmai.com,639176238145,"Dr. Hautea, Ar. Leonado & Ms. Bato",,,,,,,,,,,,,
NCR,Metro Manila,Pasay City,Philippine Airport Diagnostic Laboratory,PRIVATE,Non-Hospital Based,rRT PCR,,,5,RENEWED,01/07/21 - 12/31/21,13-0009-2021-CT-2,"March 25, 2021",Dr. Daphne Ang,padlabdocs@gmail.com,639668979509,,,,,,,,,,,,,,
NCR,Metro Manila,City of Manila,Philippine General Hospital,GOVERNMENT,Hospital Based,Cartridge-based PCR,GeneXpert,,5,RENEWED,01/01/21 - 12/31/21,13-0164-21-H3-1,,,,(02) 8554 8400 loc. 3200/3201,,,,,,,,,,,,,,
NCR,Metro Manila,Quezon City,Philippine Genome Center UP-Diliman (NHB),GOVERNMENT,Non-Hospital Based,rRT PCR,,,5,RENEWED,01/01/21 - 12/31/21,13-0053-2021-CT-2,,Dr. Ayes,,63939 908 2296,,,,,,,,,,,,,,
NCR,Metro Manila,Quezon City,Philippine Heart Center,DOH Retained,Hospital Based,Cartridge-based PCR,GeneXpert,,5,RENEWED,01/01/21 - 12/31/21,13-0154-21-H3-1,,,gsmanzo@phc.gov.ph / dlm@phc.gov.ph,(02) 8925 2401,,,,,,,,,,,,,,
NCR,Metro Manila,"National Headquarters, EDSA, Camp Crame, Quezon City, 1111 Metro Manila",Philippine National Police Crime Laboratory,GOVERNMENT,Non-Hospital Based,rRT PCR,,,5,RENEWED,01/01/21 - 12/31/21,13-0069-2021-CT-2,,,lorna.santos.pnp@gmail.com,(02) 3414 3334,Dr. Leviste,,,,,,,,,,,,,
NCR,Metro Manila,Mandaluyong City,Philippine Red Cross - National Blood Center,PRIVATE,Non-Hospital Based,rRT PCR,,,5,RENEWED,01/01/21 - 12/31/21,13-0011-2021-CT-2,,,nbs@redcross.org.ph,(02) 8790-2300 local 931/932/935,,,,,,,,,,,,,,
NCR,Metro Manila,City of Manila,Philippine Red Cross - Port Area,PRIVATE,Non-Hospital Based,rRT PCR,,,5,RENEWED,01/01/21 - 12/31/21,,,,christiemonina.nalupta@redcross.org.ph,(02) 8527-0861,,,,,,,,,,,,,,
NCR,Metro Manila,Quezon City,PNP General Hospital,GOVERNMENT,Hospital Based,rRT PCR,,,5,RENEWED,01/01/21 - 12/31/21,13-0236-21-H2-1,,,jun_evangelistamd@yahoo.com,(02) 723-0401,,,,,,,,,,,,,,
NCR,Metro Manila,Mandaluyong City,PRC - PRC Logistics and Multipurpose Center,PRIVATE,Non-Hospital Based,rRT PCR,,,5,RENEWED,01/01/21 - 12/31/21,13-0015-2021-CT-2,,,,(02) 8790-2300,,,,,,,,,,,,,,
NCR,Metro Manila,City of Manila,PSG Station Hospital Molecular Laboratory,GOVERNMENT,Non-Hospital Based,rRT PCR,,,5,NEW,03/17/21 - 12/31/21,13-0015-2021-CT-2,,,psgshmolecularlaboratory@gmail.com,,,,,,,,,,,,,,,
NCR,Metro Manila,Las Pinas City,QR Medical Laboratories Inc. (VitaCare),PRIVATE,Non-Hospital Based,rRT PCR,,,5,RENEWED,01/01/21 - 12/31/21,13-0018-2021-CT-2,,,,0917-8411496,,,,,,,,,,,,,,
NCR,Metro Manila,Quezon City,Quezon City Molecular Diagnostics Laboratory,LGU,Non-Hospital Based,rRT pCR,,,5,RENEWED,01/01/21 - 12/31/21,13-0028-2021-CT-2,,,"philipbalisan_md@yahoo.com/lucille.chua@
quezoncity.gov.ph/esperanza.arias@quezonci
ty.gov.ph/faye.chongko@gmail.com",9150412539,,,,,,,,,,,,,,
NCR,Metro Manila,"J.P. Rizal, Project 4, Lungsod Quezon, 1109 Kalakhang Maynila",Quirino Memorial Medical Center,DOH Retained,Hospital Based,rRT PCR,,,5,NEW,04/24/21 - 12/31/21,,,,qmmcmolecular@gmail.com,,"Dr. Bonagua, Mr. Dela Cruz, Engr. Retirva",,,,,,,,,,,,,
NCR,Metro Manila,"Filinvest Marketing & Exhibit Office, 9002 Research Dr, Alabang, Muntinlupa, 1781 Metro Manila","Research Institute for Tropical Medicine, Inc. (RITM)",DOH Retained,Hospital Based,rRT PCR,,SNL,5,RENEWED,01/01/21 - 12/31/21,13-0225-21-H3-1,,,info@ritm.gov.ph,(02) 8807-2631; (02) 8807-2632; (02) 8807-2637),,,,,,,,,,,,,,
NCR,Metro Manila,"Pasig Blvd, Pasig, 1600 Metro Manila",Rizal Medical Center,DOH Retained,Hospital Based,Cartridge-based PCR,GeneXpert,,5,RENEWED,01/01/21 - 12/31/21,13-0089-21-H3-1,,,rizalmedicalcenter@gmail.com,(02) 8865 8400," Ms. Fermo, Engr. Lui, Ms. Padua, Ms. Foronda & Engr. Salanga",,,,,,,,,,,,,
NCR,Metro Manila,Mandaluyong City,"Safeguard DNA Diagnostics, Inc.",PRIVATE,Non-Hospital Based,rRT PCR,,,5,RENEWED,01/01/21 - 12/31/21,13-0001-2021-CT-2,,,jmagallanes@ssdiph.com darriola@sddiph.com,(02) 296 7595,,,,,,,,,,,,,,
NCR,Metro Manila,"Quiricada St, Santa Cruz, Manila, 1003 Metro Manila",San Lazaro Hospital (SLH),DOH Retained,Hospital Based,rRT PCR,,SNL,5,RENEWED,01/01/21 - 12/31/21,13-0022-2020-CT-2,,,slhlab.covid19@yahoo.com,(02) 8732 3777,,,,,,,,,,,,,,
NCR,Metro Manila,Mandaluyong City,San Miguel Foundation Testing Laboratory,PRIVATE,Non-Hospital Based,rRT PCR,,,5,RENEWED,01/01/21 - 12/31/21,4A-0253-21-H2-2,,,desdayo@gmail.com,,"Engr. Retirva, Mr. Petines, Ms. Reyes, Ms. Foronda, Ms. Padua & Engr. Tolentitno",,,,,,,,,,,,,
NCR,Metro Manila,"4F Sterling Centre, 131 Dela Rosa St (corner of Ormaza St), Legazpi Village, Makati, 1229 Metro Manila","Singapore Diagnostic, Inc.",PRIVATE,Non-Hospital Based,rRT PCR,,,5,RENEWED,01/01/21 - 12/31/21,4A-0023-2021-CT-2,,,evidente@singaporediagnostics.com,(02) 8845 0655,,,,,,,,,,,,,,
NCR,Metro Manila,Paranaque City,South Super Hi Way Molecular Diagnostic Lab,PRIVATE,Hospital Based,rRT PCR,,,5,RENEWED,01/01/21 - 12/31/21,13-0058-2021-CT-2,,,info@ssmchealth.com,(02) 8823 5250,"Engr. Lui, Ms. Fermo, Ms. Padua, Ms. Foronda & Engr. Tolentino Jr.",,,,,,,,,,,,,
NCR,Metro Manila,"Rizal Drive cor. 32nd St. and, 5th Ave, Taguig, 132121 Metro Manila",St. Luke's Medical Center - BGC (HB),PRIVATE,Hospital Based,rRT PCR,,,5,RENEWED,01/01/21 - 12/31/21,13-0043-21-H3-2,,,jprojales@stlukes.com.ph,8-789-7700,,,,,,,,,,,,,,
NCR,Metro Manila,"Rizal Drive cor. 32nd St. and, 5th Ave, Taguig, 132121 Metro Manila",St. Luke's Medical Center - BGC (HB),PRIVATE,Hospital Based,Cartridge-based PCR,BioFire,,5,RENEWED,01/01/21 - 12/31/21,13-0043-21-H3-2,,,jprojales@stlukes.com.ph,8-789-7700,,,,,,,,,,,,,,
NCR,Metro Manila,"279 E Rodriguez Sr. Ave, Quezon City, 1112 Metro Manila",St. Luke's Medical Center- QC,PRIVATE,Hospital Based,rRT PCR,,,5,RENEWED,01/01/21 - 12/31/21,13-0194-21-H3-2,,,cathernandez@stlukes.com.ph,8-723-0101,,,,,,,,,,,,,,
NCR,Metro Manila,"279 E Rodriguez Sr. Ave, Quezon City, 1112 Metro Manila",St. Luke's Medical Center- QC,PRIVATE,Hospital Based,Cartridge-based PCR,GeneXpert,,5,RENEWED,01/01/21 - 12/31/21,13-0194-21-H3-2,,,cathernandez@stlukes.com.ph,8-723-0101,"Ar. Leonado, Ms. Toledo, Ms. Lee, Mr. Medina & Engr. Vicente",,,,,,,,,,,,,
NCR,Metro Manila,2629 Ne Panaderos St. Sta. Ana Manila,Sta. Ana Hospital ,LGU,hospital Based,Cartridge-based PCR,GeneXpert,,5,RENEWED,01/01/21 - 12/31/21,13-0177-21-H2-2,,,staanahospital@manila.gov.ph,(02) 8516 6790,"Engr. Retirva, Mr. Dela Cruz, Ms. Bato, Ms. Casagan & Engr. Reyes",,,,,,,,,,,,,
NCR,Metro Manila,2629 Ne Panaderos St. Sta. Ana Manila,Sta. Ana Hospital ,LGU,Hospital Based,rRT PCR,,,5,RENEWED,01/01/21 - 12/31/21,13-0177-21-H2-2,,,staanahospital@manila.gov.ph,(02) 8516 6790,,,,,,,,,,,,,,
NCR,Metro Manila,City of Manila,"Supercare Medical Services, Inc.",PRIVATE,Non-Hospital Based,rRT PCR,,,5,RENEWED,01/01/21 - 12/31/21,13-0051-2021-CT-2,,Dr. Gutay,laboratory.manila@supercare.com.ph,639285018078,,,,,,,,,,,,,,
NCR,Metro Manila,Taguig City,Taguig City Molecular Laboratory,LGU,Non-Hospital Based,rRT pCR,,,5,RENEWED,01/01/21 - 12/31/21,13-0045-2021-CT-1,,,taguigcitymolecularlab@gmail.com,0920-629-6120 / 0917-316-4316/ 0917-879-6543,,,,,,,,,,,,,,
NCR,Metro Manila,Diosdado Macapagal Boulevard Pasay City,The Lord's Grace Medical and Industrial Clinic,PRIVATE,Hospital Based,rRT PCR,,,5,RENEWED,01/01/21 - 12/31/21,13-0037-2021-CT-2,,,magraciamarkangel@gmail.com,0922-836-0870,,,,,,,,,,,,,,
NCR,Metro Manila,Pasig City,The Medical City - Ortigas,PRIVATE,Hospital Based,rRT PCR,,,5,RENEWED,01/01/21 - 12/31/21,13-0058-21-H3-2,,,gbcortez@themedicalcity.com,0915-376-6093,,,,,,,,,,,,,,
NCR,Metro Manila,Pasig City,The Medical City - Ortigas,PRIVATE,Hospital Based,Cartridge-based PCR,GeneXpert,,5,NEW,02/19/21 - 12/31/21,13-0058-21-H3-2,,,gbcortez@themedicalcity.com,0915-376-6093,,,,,,,,,,,,,,
NCR,Metro Manila,Paranaque City,The Premier Molecular Diagnostics,PRIVATE,Hospital Based,rRT PCR,,,5,RENEWED,01/01/21 - 12/31/21,13-0231-21-H2-2,,,tp.moleculardiagnostics@gmail.com,(02) 8865 2200,,,,,,,,,,,,,,
NCR,Metro Manila,"Honorio Lopez Blvd, Tondo, Manila",Tondo Medical Center,DOH Retained,Hospital Based,Cartridge-based PCR,GeneXpert,,5,RENEWED,01/01/21 - 12/31/21,13-0176-21-H3-1,,Dr. Karina Michaela Tacujan,microlab@tondomedicalcenter.com,(02) 8865 9000,,,,,,,,,,,,,,
NCR,Metro Manila,"1 Amorsolo St. Cor 1230, Urban Ave, Makati",Tropical Disease Foundation,PRIVATE,Non-Hospital Based,rRT PCR,,,5,RENEWED,01/01/21 - 12/31/21,13-0013-2021-CT-2,,,aageronimo@tdf.org.ph,(02) 8894 0743,,,,,,,,,,,,,,
NCR,Metro Manila,"Alabang–Zapote Road, Las Pinas, 1740",University of Perpetual Help System Dalta,PRIVATE,Hospital Based,rRT PCR,,,5,RENEWED,01/01/21 - 12/31/21,13-0095-21-H3-2,"December 21, 2020",,uphdmc_lab@yahoo.com,(02) 8874 8515,,,,,,,,,,,,,,
NCR,Metro Manila,Quezon City,University of the East Ramon Magsaysay Memorial Medical Center,PRIVATE,Hospital Based,rRT PCR,,,5,RENEWED,01/01/21 - 12/31/21,13-0202-21-H3-2,,,jandyledesma@gmail.com,(02) 8715 0861,,,,,,,,,,,,,,
NCR,Metro Manila,"UP National Institutes Of Health 623, Pedro Gil St, Ermita, Manila, 1000",UP National Institutes of Health (UP NIH),GOVERNMENT,Non-Hospital Based,rRT PCR,,,5,RENEWED,01/01/21 - 12/31/21,13-0049-2021-CT-2,,,upm-nih@up.edu.ph,(02) 8526 4349,"Dr. Hautea, Engr. Lui, Ms. Fermo, Ms. Foronda, Ms. Padua & Engr. Nolan",,,,,,,,,,,,,
NCR,Metro Manila,"2nd floor, Laboratory Complex, Philippine General Hospital, Taft Avenue, Ermita, Manila 1000",UP-PGH-MRL ,GOVERNMENT,Hospital Based,rRT PCR,,,5,RENEWED,01/01/21 - 12/31/21,13-0164-21-H3-1,,,mitchdiwa@yahoo.com,(02) 8554-8400 Loc 3232,,,,,,,,,,,,,,
NCR,Metro Manila,2nd Floor OPD Building Valenzuela City Emergency Hospital G Lazaro St. Dalandanan Valenzuela City,Valenzuela Hope Molecular Laboratory,LGU,Non-Hospital Based,rRT PCR,,,5,RENEWED,01/01/21 - 12/31/21,13-0047-2021-CT-1,,,valhopemolecularlab@gmail.com,0917-5056591,,,,,,,,,,,,,,
NCR,Metro Manila,"North Ave, Diliman, Quezon City, Metro Manila",Veteran Memorial Medical Center,GOVERNMENT,Hospital Based,rRT PCR,,,5,RENEWED,01/01/21 - 12/31/21,13-0073-21-H3-1,,,mas_vmmc@yahoo.com,(02) 8927 6426,,,,,,,,,,,,,,
NCR,Metro Manila,Quezon City,Victoriano Luna Medical Center -AFRIMS - Collaborative Molecular Laboratory,GOVERNMENT,Hospital Based,Cartridge-based PCR,GeneXpert,,5,NEW,01/25/21 - 12/31/21,13-0235-21-H3-1,,,laboratory.vlmc@gmail.com,(02) 8246 2111,,,,,,,,,,,,,,
NCR,Metro Manila,Quezon City,Victoriano Luna Medical Center -AFRIMS - Collaborative Molecular Laboratory,GOVERNMENT,Hospital Based,rRT PCR,,,5,RENEWED,01/01/21 - 12/31/21,13-0235-21-H3-1,,,laboratory.vlmc@gmail.com,(02) 8246 2111,,,,,,,,,,,,,,
NCR,Metro Manila,Quezon City,Metro North Medical Center and Hospital Inc.,PRIVATE,Hospital Based,rRT PCR,,"January 29, 2021",4,For Repeat PT,,,,Dr. Cruz,erickcruz0827@gmail.com,639178409972,"Dr. Bonagua, Engr. Lui, Ms. Casagan, Ms. Bato & Engr. Reyes",,,,,,,,,,,,,
NCR,Metro Manila,City of Manila,"Truhealth Diagnostics Center, Corp.",PRIVATE,Non-Hospital Based,rRT PCR,,"July 7, 2020",4,For Proficiency Testing,,,,,adminhead@truhealthcorp.com,,"Dr. Hautea, Ar. Leonado, Ms. Foronda, Ms. Padua & Engr. Tolentino",,,,,,,,,,,,,
NCR,Metro Manila,Valenzuela City,Allied Care Expert - Valenzuela,PRIVATE,Hospital Based,rRT PCR,,"March 8, 2021",3,FOR COMPLIANCE,,,,,,,,,,,,,,,,,,,,
NCR,Metro Manila,Quezon City,Best Diagnostic Corporation,PRIVATE,Non-Hospital Based,rRT PCR,,"March 29, 2021",3,FOR COMPLIANCE,,,,,,,,,,,,,,,,,,,,
NCR,Metro Manila,Quezon City,Capitol Medical Center Inc.,PRIVATE,Hospital Based,rRT PCR,,June 4,3,FOR COMPLIANCE,,,,,,,,,,,,,,,,,,,,
NCR,Metro Manila,San Juan City,Cardinal Santos Medical Center,PRIVATE,Hospital Based,Cartridge-based PCR,GeneXpert,2020,3,FOR COMPLIANCE,,,,,,,,,,,,,,,,,,,,
NCR,Metro Manila,San Juan City,Cardinal Santos Medical Center,PRIVATE,Hospital Based,Cartridge-based PCR,Biofire,"April 16, 2021",3,FOR COMPLIANCE,,,,Ms. Del Rosario,csmcmolelab@gmail.com,,"Ms. Fermo, Ar. Leonado, Mr. Olmedo, Ms. Padua & Ms. Bato",,,,,,,,,,,,,
NCR,Metro Manila,Quezon City (Amoranto),Hi-Precision,PRIVATE,Non-Hospital Based,Cartridge-based PCR,Roche Cobas Liat,"April 16, 2021",3,FOR COMPLIANCE,,,,Ms. Chua,esmeraldachua@hi-precision.com.ph,(02) 8863 9999,"Dr. Hautea, Ms. Toledo, Mr. Malbacias, Ms. Padua, Ms. Bato & Engr. Reyes",,,,,,,,,,,,,
NCR,Metro Manila,Marikina City,Marikina Valley Medical Center,PRIVATE,Hospital Based,rRT PCR,,"February 17, 2021",3,FOR COMPLIANCE,,,,,,,"Ms. Fermo, Ar. Leonado & Mr. Olmedo",,,,,,,,,,,,,
NCR,Metro Manila,City of Manila,"Medical Center Manila, Inc.",PRIVATE,Hospital Based,Cartridge-based PCR,Biofire,"March 26, 2021",3,FOR COMPLIANCE,,,,,,,,,,,,,,,,,,,,
NCR,Metro Manila,Paranaque City,"Medical Center of Paranaque, Inc.",PRIVATE,,Cartridge-based PCR,BDmax,"April 16, 2021",3,FOR COMPLIANCE,,,,Dr. Lenon,mcpimolec@gmail.com,,"Dr. Bonagua, Engr. Lui, Ms. Lentija, Ms. Litiatco, Ms. Bato & Engr. Reyes",,,,,,,,,,,,,
NCR,Metro Manila,Taguig City,"Medical Center of Taguig City, Inc.",PRIVATE,Hospital Based,rRT PCR,,"March 15, 2021",3,FOR COMPLIANCE,,,,Dr. Espiritu,akdrmt@gmail.com,(02) 8888 6284,,,,,,,,,,,,,,
NCR,Metro Manila,Paranaque City,"Medical Center Paranaque, Inc.",PRIVATE,Non-Hospital Based,rRT PCR,,"March 8, 2021",3,FOR COMPLIANCE,,,,Dr. Lenon,mcpimolec@gmail.com,,"Dr. Bonagua, Engr. Lui, Ms. Lentija, Ms. Litiatco & Ms. Banaag",,,,,,,,,,,,,
NCR,Metro Manila,Quezon City,National Childrens Hospital,GOVERNMENT,Hospital Based,Cartridge-based PCR,GeneXpert,"February 18, 2021",3,FOR COMPLIANCE,,,,,,,,,,,,,,,,,,,,
NCR,Metro Manila,Pasay City,Philippine Airport Diagnostic Laboratory,PRIVATE,Non-Hospital Based,Cartridge-based PCR,Iponatics,"January 26, 2021",3,FOR COMPLIANCE,,,,,,,"Dr. Bonagua, Engr. Lui, Ms Lentija, Ms. Litiatco & Ms. Banaag",,,,,,,,,,,,,
NCR,Metro Manila,Quezon City,"Philippine Tuberculosis Society Inc, - Quezon Institute",GOVERNMENT,Hospital Based,Cartridge-based PCR,GeneXpert,2020,3,FOR COMPLIANCE,,,,,,,,,,,,,,,,,,,,
NCR,Metro Manila,"Ma. Clara St., cor. Banawe St., Brgy. Lourdes, Quezon City",Philippine Orthopedic Center,GOVERNMENT,Hospital Based,Cartridge-based PCR,GeneXpert,"April 22, 2021",3,,,,,"Aristotle Peter T. Lee, MD",pocpathology@gmail.com,8711 4276 loc 111,"Mr. Olmedo, Ar. Rene, Ms. Fermo, Ms. Padua & Ms. Bato",,,,,,,,,,,,,
NCR,Metro Manila,"1809 Leon Guinto, Malate, Manila",One Health Medical Laboratory Inc.,PRIVATE,Non-Hospital Based,rRT PCR,,"April 23, 2021",2,,,,,"Marius Wee Sing, MD",1healthmedical@gmail.com,63933 583 9971,"Dr. Bonagua, Engr. Lui, Ms. Lentija, Ms. Litiatco, Ms. Bato & Ms. Padua",,,,,,,,,,,,,
NCR,Metro Manila ,"Quezon Avenue, corner Agham Rd, Diliman, Quezon City, 1101 Metro Manila",Philippine Children's Medical Center,DOH Retained,Hospital Based,rRT PCR,,,5,RENEWED,01/01/21 - 12/31/21,13-0186-21-H3-1,"December 21, 2020",,fdelacuestapcmc@gmail.com,(02) 8588 9900,,,,,,,,,,,,,,
Region 4B,Mindoro,Mamburao,Occidental Mindoro Provincial Hospital,LGU,Hospital Based,Cartridge-based PCR,GeneXpert,,5,NEW,02/01/21 - 12/31/21,4B-0002-21-H1-1,,Dr. Catalina De Sienna Dimayacyac,larryamita74@gmail.com,711 3020,,,,,,,,,,,,,,
Region 4B,Mindoro,Puerto Gallera,"Puerto Galera Molecular Laboratory (Formerly Best Care Medical Clinic & Diagnostic Center, Inc.)",LGU,Non-Hospital Based,Cartridge-based PCR,GeneXpert,,5,NEW,01/22/21 - 12/31/21,4B-0009-2021-CT-1,,Mr. Dennil Abucejo,pghlaboratory2014@yahoo.com,639171133878,"Dr. Aguilar, Mr. Malbacias, Ms. Toledo, Engr. Tolentino, Mr. Medina, Ms. Villanueva & Engr. Nimer",,,,,,,,,,,,,
Region 10,Misamis Occidental,"Aguada, Ozamis City",Mayor Hilarion A. Ramiro Sr. Medical Center,GOVERNMENT,Non-Hospital Based,rRT PCR,,"March 12, 2021",3,FOR COMPLIANCE,,,,"Harold T. Lee, MD, FPSP",mharsrtth@yahoo.com,(088) 521 0440/ 0022,"Dr. Hautea, Ms. Toledo, Mr. Malbacias, Ms. Padua, Ms. Bato",,,,,,,,,,,,,
Region 10,Misamis Occidental,Maningcol Ozamis City,Mayor Hilarion A. Ramiro Sr. Medical Center,GOVERNMENT,Hospital Based,Cartridge-based PCR,GeneXpert,"April 20, 2021",3,FOR COMPLIANCE,,,,"Melanio Ramir P. Beloso, MD, MPH, FPCS",mabini.hospital@yahoo.com,639507368444,"Dr. Hautea, Ms. Toledo, Mr. Malbacias, Ms. Padua & Ms. Foronda",,,,,,,,,,,,,
Region 10,Misamis Occidental,Oroquieta City,Misamis Occidental RT-PCR Laboratory,GOVERNMENT,Non-Hospital Based,rRT PCR,,"March 15, 2021",3,,,,,"Harold T. Lee, MD, FPSP",mharsrtth@yahoo.com,(088) 521 0440/ 0022,"Dr. Hautea, Ms. Toledo, Mr. Malbacias, Ms. Padua & Ms. Foronda",,,,,,,,,,,,,
Region 10,Misamis Oriental,"Hayes St., Pinikitan, Cagayan de Oro City, Misamis Oriental",Maria Reyna Xavier University Hospital Inc.,PRIVATE,Hospital Based,rRT PCR,,,5,RENEWED,01/01/21 - 12/31/21,10-0219-21-H3-2,,Dr. Gerard Lamayra,mariareynaxucdo@gmail.com,(08822) 725210,,,,,,,,,,,,,,
Region 10,Misamis Oriental,"Capitol Rd, Cagayan de Oro, 9000 Misamis Oriental",Northern Mindanao Medical Center,DOH Retained,Hospital Based,Cartridge-based PCR,,,5,RENEWED,01/01/21 - 12/31/21,10-0017-21-H3-1,,Dr. Jerry Abroguena,nmmcgenexpress@gmail.com,639173046334,,,,,,,,,,,,,,
Region 10,Misamis Oriental,"Capitol Rd, Cagayan de Oro, 9000 Misamis Oriental",Northern Mindanao Medical Center,GOVERNMENT,Hospital Based,rRT PCR,,,5,NEW,02/08/21 - 12/31/21,10-0017-21-H3-1,,Dr. Neal Rana,nmmc_cdo@yahoo.com,,,,,,,,,,,,,,,
Region 10,Misamis Oriental,Cagayan de Oro City,Northern Mindanao Medical Center- Satellite Covid-19 Laboratory,GOVERNMENT,Non-Hospital Based,rRT PCR,,,5,RENEWED,01/01/21 - 12/31/21,10-0071-2021-CT-1,"January 26, 2021",Dr. Neal Rana,nmtbrc.covid@gmail.com,,,,,,,,,,,,,,,
Region 10,Misamis Oriental,Cagayan de Oro City,Philippine Red Cross - Cagayan de Oro Chapter,PRIVATE,Non-Hospital Based,rRT pCR,,,5,RENEWED,01/01/21 - 12/31/21,,,,prc.misorcdo.mollab@gmail.com,63995 277 8672,,,,,,,,,,,,,,
Region 10,Misamis Oriental,"Cagayan de Oro - Iligan Road, Highway, Cagayan de Oro, 9000 Misamis Oriental",Polymedic Medical Plaza,PRIVATE,Non-Hospital Based,rRT PCR,,,5,RENEWED,01/01/21 - 12/31/21,10-0040-2021-CT-2,,,cdopolymedicmedicalplaza@gmail.com,(088) 858 5242,,,,,,,,,,,,,,
CAR,Mountain Province,"Abatan, Bauko",Luis Hora Memorial Regional Hospital,DOH Retained,Hospital Based,rRT PCR,,,5,NEW,02/04/21 - 12/31/21,14-0076-21-H2-1,,Dr. Christine Ayochok,lhmrh_doh@yahoo.com,639055684163,"Engr. Lui, Ms. Fermo, Ms. Bato, Ms. Casagan & Engr. Reyes",,,,,,,,,,,,,
Region 6,Negros Occidental,"Eroreco, Mandalagan,  Bacolod City",Bacolod Queen of Mercy Hospital,PRIVATE,Hospital Based,rRT PCR,,,5,RENEWED,01/01/21 - 12/31/21,06-0394-21-H2-2,,Dr. Jamielynn AnnF. Cruz-Nalumen,bqmhospital2018@gmail.com,(034) 431-3207,,,,,,,,,,,,,,
Region 6,Negros Occidental,"719 Quirino Avenue, corner Roxas Blvd, Malate, Manila, 1004 Metro Manila",Corazon Locsin Montelibano Memorial Regional Hospital,DOH Retained,Hospital Based,rRT pCR,,,5,RENEWED,01/01/21 - 12/31/21,06-0390-21-H3-1,,Dr. Hans Francis Ferraris,clmmrh_coh@yahoo.com/hfdf38@yahoo.com/ davidtibo.p@gmail.com,(034) 433 2697,,,,,,,,,,,,,,
Region 6,Negros Occidental,"Brgy. 5. B.S Aquino Drive, Bacolod City, Negros Occidental",Dr. Pablo O. Torre Memorial Hospital,PRIVATE,Hospital Based,rRT PCR,,,5,RENEWED,01/01/21 - 12/31/21,06-0465-21-H3-2,,Dr. David Pedroza,dpotmhlab@yahoo.com,639993068676,"Dr. Hautea, Ar. Leonado, Engr Salanga, Ms. Padua, Ms. Foronda",,,,,,,,,,,,,
Region 6,Negros Occidental,Bacolod City,PRC - Negros Occidental Molecular Laboratory,PRIVATE,Non-Hospital Based,rRT PCR,,,5,RENEWED,01/01/21 - 12/31/21,06-0070-2021-CT-2,,,negros.occidental@redcross.org.ph,(034) 434 8541,,,,,,,,,,,,,,
Region 6,Negros Occidental,Mun. of Villadolid,"Safeguard DNA Diagnostics, Inc.",PRIVATE,Non-Hospital Based,rRT PCR,,,5,NEW,04/21/21 - 12/31/21,02-0021-2021-CT-2,,Dr. Leni Montes,ltnegros@sddiph.com,639993406873,"Dr. Hautea, Ms. Toledo, Mr. Malbacias, Ms. Padua, Ms. Foronda & Engr. Salanga",,,,,,,,,,,,,
Region 6,Negros Occidental,Silay City,Teresita Jalandoni Provincial Hospital,LGU,Hospital Based,rRT PCR,,,5,RENEWED,01/01/21 - 12/31/21,06-0033-2021-CT-1,,,tljph_silay@yahoo.com,0922-835-4626,,,,,,,,,,,,,,
Region 6,Negros Occidental,Bacolod City,"The Doctors Hospital, Inc.",PRIVATE,Hospital Based,rRT PCR,,,5,RENEWED,01/01/21 - 12/31/21,06-0389-21-H3-2,,,mecatamen@sehi.ph,0917-882-2676,"Engr. Lui, Ms. Fermo, Ms. Reyes, Ms. Foronda, Ms. Padua & Engr. Tolentino",,,,,,,,,,,,,
Region 7,Negros Oriental,Dumaguete City,Negros Oriental Provincial Hospital,LGU,hospital Based,rRT PCR,,,5,RENEWED,01/01/21 - 12/31/21,07-0077-21-250-H1-1,,Dr. Nikko Paulo Cablao,noph.molecularlab@gmail.com,,,,,,,,,,,,,,,
Region 3,Nueva Ecija,Cabanatuan City,Dr. Paulino J. Garcia Memorial Research and Medical Center,DOH Retained,Hospital Based,rRT PCR,,"March 10, 2021",3,FOR COMPLIANCE,,,,,,,"Ms. Fermo, Ar. Leonado & Mr. Olmedo",,,,,,,,,,,,,
Region 4B,Oriental Mindoro,Calapan City,Oriental Mindoro Provincial Hospital,LGU,Hospital Based,Cartridge-based PCR,GeneXpert,,5,RENEWED,01/01/21 - 12/31/21,4B-0030-2021-CT-2,,Dr. Jonathan Leviste,omphpgom@gmail.com,,,,,,,,,,,,,,,
Region 4B,Palawan,"Culion, Palawan",Culion Sanitarium and General Hospital,DOH Retained,Hospital Based,Cartridge-based PCR,GeneXpert,,5,RENEWED,01/01/21 - 12/31/21,4B-0062-2021-CT-1,,Dr. Karen O. Bongas,doh.culsan@yahoo.com.ph / culsanlab@gmail.com,639564237389,"RLED 4-B, Mr. Medina & Engr. Vicente",,,,,,,,,,,,,
Region 4B,Palawan,"220, Malvar Street, Puerto, Princesa, 5300 Palawan",Ospital ng Palawan,DOH Retained,Hospital Based,Cartridge-based PCR,GeneXpert,,5,RENEWED,01/01/21 - 12/31/21,4B-0039-2021-CT-1,,,onp_cmps@yahoo.com,(048) 433 2621,,,,,,,,,,,,,,
Region 4B,Palawan,Puerto Princesa,PHO - Molecular Biology Laboratory,GOVERNMENT,Non-Hospital Based,rRT PCR,,"March 10, 2021",3,FOR COMPLIANCE,,,,,,,,,,,,,,,,,,,,
Region 4B,Palawan,Puerto Princesa,Puerto Princesa City Molecular Laboratory,GOVERNMENT,Non-Hospital Based,rRT PCR,,"March 3, 2021",3,FOR COMPLIANCE,,,,Dr. Dalingding,rick23md@yahoo.com,639175200146,,,,,,,,,,,,,,
Region 3,Pampanga,"Jose Abad Santos Street, San Fernando, Pampanga",Green City Medical Center,PRIVATE,Hospital Based,rRT PCR,,,5,RENEWED,01/01/21 - 12/31/21,03-0256-21-H2-2,,Dr. Rodelio Lim,gmclabcsfp@gmail.com,(045) 649 8702,,,,,,,,,,,,,,
Region 3,Pampanga,"2000 MacArthur Highway, San Fernando, Pampanga",Jose B. Lingad Memorial Hospital,DOH Retained,Hospital Based,rRT PCR,,,5,RENEWED,01/01/21 - 12/31/21,03-0243-21-H3-1,"January 26, 2021",Dr. Emil Bryan Garcia,jblmghmpl@gmail.com,(045) 961 2444,,,,,,,,,,,,,,
Region 3,Pampanga,"2000 MacArthur Highway, San Fernando, Pampanga",Jose B. Lingad Memorial Hospital,DOH Retained,Hospital Based,Cartridge-based PCR,GeneXpert,,5,NEW,03/19/21 - 12/31/21,03-0243-21-H3-1,,,,,,,,,,,,,,,,,,
Region 3,Pampanga,City of Pampanga,Our Lady of Mt. Carmel Medical Center Molecular Laboratory,PRIVATE,Hospital Based,rRT PCR,,,5,RENEWED,01/01/21 - 12/31/21,03-0260-21-H3-2,,Dr. Briones,,63920 970 7541,,,,,,,,,,,,,,
Region 3,Pampanga,Clark City,Philippine Red Cross Clark Molecular Laboratory,PRIVATE,Non-Hospital Based,rRT PCR,,,5,RENEWED,01/01/21 - 12/31/21,03-0012-2021-CT-2,,,clark.mlab@redcross.org.ph,(045) 9614117,,,,,,,,,,,,,,
Region 3,Pampanga,"100 Gatwick Gateway Clark Global City, Clark Freeport, Mabalacat, 2023",The Medical City Clark Inc.,PRIVATE,Hospital Based,rRT PCR,,,5,NEW,03/25/21 - 12/31/21,13-0058-21-H3-2,,Ms. Cabrera,jlcabrera@themedicalcity.com,639177123895,"Mr. Olmedo, Ar. Leonado, Ms. Fermo, Ms. Padua, Ms. Foronda & Engr. Salanga",,,,,,,,,,,,,
Region 1,Pangasinan,"Mayombo District, Dagupan City2400, Dagupan, Pangasinan",Dagupan Doctors Villaflor Memorial Hospital,PRIVATE,Hospital Based,rRT PCR,,,5,RENEWED,01/01/21 - 12/31/21,01-0169-21-H2-2,,Dr. Sheldon StevenAquino,ddvmh_marketing@yahoo.com,(075) 523 2222,,,,,,,,,,,,,,
Region 1,Pangasinan,San Carlos City,Pangasinan Molecular Diagnostic Laboratory,LGU,Hospital Based,rRT PCR,,,5,RENEWED,01/01/21 - 12/31/21,01-0042-2021-CT-2,,Ms. Gatpo,pangasinanmoldxlab@gmail.com,63173144348,,,,,,,,,,,,,,
Region 1,Pangasinan,"Arellano Street, Dagupan, 2400 Pangasinan",Region 1 Medical Center,DOH Retained,Hospital Based,Cartridge-based PCR,GeneXpert,,5,RENEWED,01/01/21 - 12/31/21,01-0168-21-H3-1,,,region1mc@gmail.com,0915 906 3375," Mr. Malbacias, Ar. Leonado & Ms. Padua/ Dr. Hautea, Ar. Leonado, Ms. Bato, Ms. Casagan & Engr. Reyes",,,,,,,,,,,,,
Region 1,Pangasinan,Dagupan City,Region 1 Medical Center,DOH Retained,Hospital Based,rRT PCR,,,5,NEW,02/01/21 - 12/31/21,01-0168-21-H3-1,,Ms. Romero,region1mclab@gmail.com,639239636343,,,,,,,,,,,,,,
Region 1,Pangasinan,Mun. of Villasis,Metro Pangasinan Molecular Laboratory,PRIVATE,Non-Hospital Based,rRT PCR,,"April 8, 2021",3,FOR COMPLIANCE,,,,Dr. Sanchez,mpmlint21@gmail.com,63925 579 3043,"Dr. Hautea, Ms. Toledo, Ms. Bato & Engr. Reyes",,,,,,,,,,,,,
Region 4A,Quezon,Lucena City,Lucena United Doctors Hospital and Medical Center,PRIVATE,Hospital Based,rRT PCR,,,5,RENEWED,01/01/21 - 12/31/21,4A-0138-21-H2-2,,Dr. Celso Ramos,ludhmc@yahoo.com.ph,(042) 373 6161,,,,,,,,,,,,,,
Region 4A,Quezon,Gumaca,"Rakkk Prophet Medical Center, Inc.",PRIVATE,Hospital Based,Cartridge-based PCR,GeneXpert,,5,RENEWED,01/01/21 - 12/31/21,4A-0366-21-H2-2,,,rakkklaboratory@yahoo.com,(042) 317 7857,"Dr. Bonagua, Ms. Lentija, Mr. Dele Cruz, Ms. Bato, Ms. Casagan, Engr. Reyes & Mr. Tonolete",,,,,,,,,,,,,
Region 4A,Quezon,Mun. of Mauban,Mauban Municipal Health Office Molecular Laboratory,GOVERNMENT,Non-Hospital Based,rRT PCR,,"April 16, 2021",3,FOR COMPLIANCE,,,,Dr. Mararac,rhumauban.laboratory@gmail.com,63917 877 1967,"Dr. Bonagua, Engr. Lui, Ms. Lentija, Ms. Litiatco, Ms. Bato & Engr. Reyes",,,,,,,,,,,,,
Region 4A,Rizal,"23 Sumulong Hwy, Sta. Cruz, Antipolo, 1870 Rizal",Fatima University Medical Center Antipolo Corp.,PRIVATE,Hospital Based,rRT PCR,,,5,RENEWED,01/01/21 - 12/31/21,4A-0324-21-H2-2,,Dr. Herbert Pascual,mlorenza@fumc.fatima.edu.ph,639178720805,"Dr. Bonagua, Ms. Jessa Toledo, Ms. Bato, Ms. Casagan & Engr. Reyes",,,,,,,,,,,,,
Region 4A,Rizal,Antipolo City,Soriano-Leyble Medical and Maternity Hospital,PRIVATE,Hospital Based,rRT PCR,,,5,NEW,03/29/21 - 12/31/21,,,Dr. Young,slmmhlaboratorydept@gmail.com,639619119866,"Dr. Bonagua, Engr. Lui, Ms. Casagan, Ms. Bato & Engr. Reyes",,,,,,,,,,,,,
Region 4A,Rizal,Antipolo City,Antipolo City Molecular Laboratory,GOVERNMENT,Non-Hospital Based,rRT PCR,,"March 25, 2021",3,FOR COMPLIANCE,,,,Dr. Espiritu,antipolo_cho2015@yahoo.com,,"Ar. Leonado, Ms. Fermo, Mr. Olmedo, Ms. Padua, Ms. Foronda & Engr. Salanga",,,,,,,,,,,,,
Region 5,Sorsogon,Sorsogon City,Metro Health Specialist Hospital,PRIVATE,Hospital Based,rRT PCR,,,5,NEW,01/07/21 - 12/31/21,05-0100-21-H2-2,,Dr. Harold Ronan,metrohealthshi@yahoo.com,,,,,,,,,,,,,,,
Region 12,South Cotabato,"640 Osmena, Poblacion, Koronadal City, 9506 South Cotabato",Dr. Arturo Pingoy Medical Center,PRIVATE,Hospital Based,Cartridge-based PCR,GeneXpert,,5,RENEWED,01/01/21 - 12/31/21,12-0062-21-H2-2,,Dr. Edwin Alconcel,dchikoronadal@gmail.com,(083) 228 2202,,,,,,,,,,,,,,
Region 12,South Cotabato,"Emergency Rd, General Santos City, South Cotabato",Dr. Jorge P. Royeca Hospital,LGU,Hospital Based,rRT PCR,,,5,RENEWED,01/01/21 - 12/31/21,12-0025-2021-CT-1,,Dr. Edwin Alconcel,djprchlab@gmail.com,(083) 552 4808,"Dr. Bonagua, Mr. Dela CRuz, Ms. CAsagan, Ms. Bato, Engr. Archie",,,,,,,,,,,,,
Region 12,South Cotabato,General Santos City,St. Elizabeth Hospital,PRIVATE,Hospital Based,Cartridge-based PCR,GeneXpert,,5,RENEWED,01/01/21 - 12/31/21,12-0126-21-H3-2,,,contact@sehi.ph,63 (83) 552-3162,,,,,,,,,,,,,,
Region 12,Sultan Kudarat,Tacurong City,St. Louis Molecular Diagnostic Laboratory,PRIVATE,Non-Hospital Based,rRT PCR,,,5,NEW,03/15/21 - 12/31/21,12-0020-2021-CT-2,,Ms. Raras,stlouishospitaltacurong@gmail.com,639985669329,"Mr. Olmedo, Ar. Leonado, Ms. Fermo, Ms. Padua, Ms. Foronda & Engr. Salanga",,,,,,,,,,,,,
Region 12,Sultan Kudarat,Tacurong City,Tomboc-Salayog Hospital,PRIVATE,Hospital Based,rRT PCR,,"March 9, 2021",3,FOR COMPLIANCE,,,,Dr. Salayog,tombocsallab@gmail.com,639431365973,,,,,,,,,,,,,,
CARAGA,Surigao Del Norte,"Baan Rd, Butuan City, Agusan Del Norte",Butuan Medical Center,LGU,Hospital Based,Cartridge-based PCR,GeneXpert,,5,RENEWED,01/01/21 - 12/31/21,16-0240-21-H2-1,,Dr. Mary Ann Libre-Bernas,bmcmolecular@gmail.com,(085) 341 7490,,,,,,,,,,,,,,
CARAGA,Surigao Del Norte,"Baan Rd, Butuan City, Agusan Del Norte",Butuan Medical Center,LGU,Hospital Based,rRT pCR,,,5,RENEWED,01/01/21 - 12/31/21,16-0240-21-H2-1,,Dr. Mary Ann Libre-Bernas,bmcmolecular@gmail.com,(085) 341 7490,,,,,,,,,,,,,,
CARAGA,Surigao Del Norte,"Rizal Street, Brgy. Washington Roxas Street, Surigao City, Surigao del Norte",CARAGA Regional Hospital,DOH Retained,Hospital Based,Cartridge-based PCR,GeneXpert,,5,RENEWED,01/01/21 - 12/31/21,16-0223-21-H2-1,,Dr. Ponciano S. Limcangco,caragahospital@gmail.com / crh_laboratory@yahoo.com,639399072218,"Dr. Hautea, Engr. Lui, Ms. Fermo, Ms. Casagan, Ms. Bato, Engr. Reyes & Dr. Shin",,,,,,,,,,,,,
CARAGA,Surigao Del Norte,554 Brgy. Diego Silang Butuan City,Manuel J. Santos Hospital,PRIVATE,Hospital Based,Cartridge-based PCR,GeneXpert,,5,RENEWED,01/01/21 - 12/31/21,16-0134-21-H2-2,,Dr. Edgardo Abadiano,molecularlab@mjsantos.com.ph,(085) 341 2222,"Dr. Bonagua, Engr. Lui, Ms. Foronda & Engr. Tolentino",,,,,,,,,,,,,
CARAGA,Surigao Del Norte,Surigao City,Philippine Red Cross Molecular Laboratory,PRIVATE,Non-Hospital Based,rRT PCR,,,5,RENEWED,01/01/21 - 12/31/21,16-0067-2021-CT-2,,Ms. Kabayao,surigao.norte@redcross.org.ph / janekabayao@yahoo.com,639213334012,"Dr. Aguilar, Mr. Malbacias, Ms. Foronda, Ms. Padua & Engr. Salanga",,,,,,,,,,,,,
CARAGA,Surigao Del Sur,"Capitol Hills, Telaje, Tandag, Surigao del Sur",Adela Serra TY Memorial Medical Center,DOH Retained,Hospital Based,rRT PCR,,,5,NEW,02/08/21 - 12/31/21,16-0181-21-H2-1,,Dr. Janelle D. Rendon,mblastmmc@gmail.com,,"Engr. Lui, Ms. Fermo, Ms. Foronda, Ms. Padua & Engr. Salanga",,,,,,,,,,,,,
Region 3,Tarlac,"Hospital Drive, San Vicente, Tarlac City",Central Luzon Doctor's Hospital,PRIVATE,Hospital Based,Cartridge-based PCR,GeneXpert,,5,RENEWED,01/01/21 - 12/31/21,03-0279-21-H3-2,,Dr. Maria Theresa T. Enrile,svduenas@cldh.com.ph / pjlsantos@cldh.com.ph,(045) 982 4430,,,,,,,,,,,,,,
Region 3,Tarlac,Tarlac City,Tarlac Provincial Hospital,LGU,Hospital Based,Cartridge-based PCR,GeneXpert,,5,NEW,01/04/21 - 12/31/21,03-0030-21-H3-1,,Dr. Miranda,,(045) 982 1306/ 491 8970 Loc 255,"Dr. Hautea, Engr. Lui, Ms. Fermo, Ms. Padua, Ms. Foronda",,,,,,,,,,,,,
Region 3,Tarlac,Tarlac City,Tarlac Provincial Hospital Molecular Laboratory,LGU,Hospital Based,rRT PCR,,,5,RENEWED,01/01/21 - 12/31/21,03-0030-21-H3-1,,,molecularlab.tph@gmail.com,0922-818-5223,"Ar. Leonado, Ms. Toledo, Mr. Tonolete, Ms. Casagan, Ms. Bato & Engr. Reyes",,,,,,,,,,,,,
Region 3,Zambales,Olongapo City,Philippine Red Cross - Logistics and Training Center,PRIVATE,Non-Hospital Based,rRT PCR,,,5,RENEWED,01/01/21 - 12/31/21,03-0004-2021-CT-2,,,subicmolecularlab2020@gmail.com,(047) 222 2181,,,,,,,,,,,,,,
Region 3,Zambales,Iba,President Ramon Magsaysay Provincial Hospital,LGU,Hospital Based,Cartridge-based PCR,GeneXpert,,5,RENEWED,01/01/21 - 12/31/21,03-0463-21-H2-1,,Dr. Eclarin,pho.zambales@yahoo.com,639189047921,,,,,,,,,,,,,,
Region 9,Zamboanaga del Norte,Roxas,Zamboanga del Norte Medical Center,GOVERNMENT,Non-Hospital Based,rRT PCR,,,5,NEW,04/12/21 - 12/31/21,,,Ms. Recentes,biochem.znmc@gmail.com,,"Ms. Toledo, Ms. Foronda, Ms. Padua and Engr. Nolan",,,,,,,,,,,,,
Region 9,Zamboanga del Sur,"Mayor, Vitaliano Agan Ave, Zamboanga, 7000 Zamboanga del Sur",Ciudad Medical Zamboanga,PRIVATE,Hospital Based,rRT PCR,,,5,RENEWED,01/01/21 - 12/31/21,09-0253-21-H2-2,,Dr. Mary Torregosa,ciudadmedical_zam@yahoo.com,(062) 992 7330,,,,,,,,,,,,,,
Region 9,Zamboanga del Sur,Zamboanga City,Philippine Red Cross - Molecular Biology Laboratory,PRIVATE,Non-Hospital Based,rRT PCR,,,5,RENEWED,01/01/21 - 12/31/21,09-0016-2021-CT-2,,,prczam.moleclab@gmail.com,(062) 200 3345,,,,,,,,,,,,,,
Region 9,Zamboanga del Sur,Zamboanga City,West Metro Medical Center,PRIVATE,Hospital Based,Cartridge-based PCR,GeneXpert,,5,RENEWED,01/01/21 - 12/31/21,09-0257-21-H2-2,,,mbdelgado@westmetro.com.ph,(062) 991 2506,"Dr. Bonagua, Ms. Toledo",,,,,,,,,,,,,
Region 9,Zamboanga del Sur,"Zamboanga del Sur PH Dr Evangelista Street, Sta. Catalina Rd, Zamboanga, 7000",ZAmboanga City Medical Center,DOH Retained,Hospital Based,Cartridge-based PCR,GeneXpert,,5,RENEWED,01/01/21 - 12/31/21,09-0273-21-H3-1,,,alzamzam_abubakar@yahoo.com,(062) 991 0573,"Dr. Bonagua, Mr. Favis, Ms. Sy",,,,,,,,,,,,,
Region 9,Zamboanga del Sur,Zamboanga City,Zamboanga City Medical Center-Department of Agriculture Satellite Laboratory for COVID-19 Testing,DOH Retained,Non-Hospital Based,rRT PCR,,,5,RENEWED,01/01/21 - 12/31/21,09-0072-2021-CT-1,"December 28, 2020",,alzamzam_abubakar@yahoo.com,(062) 991 0573," Engr. Lui, Ms. Fermo, Ms. Padua, Ms. Foronda & Engr. Salanga",,,,,,,,,,,,,
Region 9,Zamboanga del Sur,Pagadian City,Zamboanga Del Sur Medical Center ,LGU,Hospital Based,rRT PCR,,,5,RENEWED,01/01/21 - 12/31/21,09-0254-21-H2-1,,,zdsmc@yahoo.com,(062) 214 4698,"Dr. Hautea, Engr. Lui, Ms. Fermo, Ms. Padua, Ms. Foronda & Engr. Salanga",,,,,,,,,,,,,
,,,,,,,,,,,,,,,,,,,,,,,,,,,,,,
,,,,,,,,,,,,,,,,,,,,,,,,,,,,,,
,,,,,,,,,,,,,,,,,,,,,,,,,,,,,,
,,,,,,,,,,,,,,,,,,,,,,,,,,,,,,
,,,,,,,,,,,,,,,,,,,,,,,,,,,,,,
,,,,,,,,,,,,,,,,,,,,,,,,,,,,,,
,,,,,,,,,,,,,,,,,,,,,,,,,,,,,,
,,,,,,,,,,,,,,,,,,,,,,,,,,,,,,
,,,,,,,,,,,,,,,,,,,,,,,,,,,,,,
,,,,,,,,,,,,,,,,,,,,,,,,,,,,,,
,,LEGENDS:,,,,,,,,,,,,,,,,,,,,,,,,,,,,
,,,POP UP LABS./ CONTAINARIZED LABS./ MODULAR LABS.,,,,,,,,,,,,,,,,,,,,,,,,,,,
,,,CARTRIDGE-BASED RAPID PCR,,,,,,,,,,,,,,,,,,,,,,,,,,,
,,,NEWLY PROMOTED FACILITY OF THE DAY,,,,,,,,,,,,,,,,,,,,,,,,,,,
,,,,,,,,,,,,,,,,,,,,,,,,,,,,,,
,,,,,,,,,,,,,,,,,,,,,,,,,,,,,,
,,,,,,,,,,,,,,,,,,,,,,,,,,,,,,
,,,,,,,,,,,,,,,,,,,,,,,,,,,,,,
,,,,,,,,,,,,,,,,,,,,,,,,,,,,,,
,,,,,,,,,,,,,,,,,,,,,,,,,,,,,,
,,,,,,,,,,,,,,,,,,,,,,,,,,,,,,
,,,,,,,,,,,,,,,,,,,,,,,,,,,,,,
,,,,,,,,,,,,,,,,,,,,,,,,,,,,,,
,,,,,,,,,,,,,,,,,,,,,,,,,,,,,,
,,,,,,,,,,,,,,,,,,,,,,,,,,,,,,
,,,,,,,,,,,,,,,,,,,,,,,,,,,,,,
,,,,,,,,,,,,,,,,,,,,,,,,,,,,,,
,,,,,,,,,,,,,,,,,,,,,,,,,,,,,,
,,,,,,,,,,,,,,,,,,,,,,,,,,,,,,
,,,,,,,,,,,,,,,,,,,,,,,,,,,,,,
,,,,,,,,,,,,,,,,,,,,,,,,,,,,,,
,,,,,,,,,,,,,,,,,,,,,,,,,,,,,,
,,,,,,,,,,,,,,,,,,,,,,,,,,,,,,
,,,,,,,,,,,,,,,,,,,,,,,,,,,,,,
,,,,,,,,,,,,,,,,,,,,,,,,,,,,,,
,,,,,,,,,,,,,,,,,,,,,,,,,,,,,,
,,,,,,,,,,,,,,,,,,,,,,,,,,,,,,
,,,,,,,,,,,,,,,,,,,,,,,,,,,,,,
,,,,,,,,,,,,,,,,,,,,,,,,,,,,,,
,,,,,,,,,,,,,,,,,,,,,,,,,,,,,,
,,,,,,,,,,,,,,,,,,,,,,,,,,,,,,
,,,,,,,,,,,,,,,,,,,,,,,,,,,,,,
,,,,,,,,,,,,,,,,,,,,,,,,,,,,,,
,,,,,,,,,,,,,,,,,,,,,,,,,,,,,,
,,,,,,,,,,,,,,,,,,,,,,,,,,,,,,
,,,,,,,,,,,,,,,,,,,,,,,,,,,,,,
,,,,,,,,,,,,,,,,,,,,,,,,,,,,,,
,,,,,,,,,,,,,,,,,,,,,,,,,,,,,,
,,,,,,,,,,,,,,,,,,,,,,,,,,,,,,
,,,,,,,,,,,,,,,,,,,,,,,,,,,,,,
,,,,,,,,,,,,,,,,,,,,,,,,,,,,,,
,,,,,,,,,,,,,,,,,,,,,,,,,,,,,,
,,,,,,,,,,,,,,,,,,,,,,,,,,,,,,
,,,,,,,,,,,,,,,,,,,,,,,,,,,,,,
,,,,,,,,,,,,,,,,,,,,,,,,,,,,,,
,,,,,,,,,,,,,,,,,,,,,,,,,,,,,,
,,,,,,,,,,,,,,,,,,,,,,,,,,,,,,
,,,,,,,,,,,,,,,,,,,,,,,,,,,,,,
,,,,,,,,,,,,,,,,,,,,,,,,,,,,,,
,,,,,,,,,,,,,,,,,,,,,,,,,,,,,,
,,,,,,,,,,,,,,,,,,,,,,,,,,,,,,
,,,,,,,,,,,,,,,,,,,,,,,,,,,,,,
,,,,,,,,,,,,,,,,,,,,,,,,,,,,,,
,,,,,,,,,,,,,,,,,,,,,,,,,,,,,,
,,,,,,,,,,,,,,,,,,,,,,,,,,,,,,
,,,,,,,,,,,,,,,,,,,,,,,,,,,,,,
,,,,,,,,,,,,,,,,,,,,,,,,,,,,,,
,,,,,,,,,,,,,,,,,,,,,,,,,,,,,,
,,,,,,,,,,,,,,,,,,,,,,,,,,,,,,
,,,,,,,,,,,,,,,,,,,,,,,,,,,,,,
,,,,,,,,,,,,,,,,,,,,,,,,,,,,,,
,,,,,,,,,,,,,,,,,,,,,,,,,,,,,,
,,,,,,,,,,,,,,,,,,,,,,,,,,,,,,
,,,,,,,,,,,,,,,,,,,,,,,,,,,,,,
,,,,,,,,,,,,,,,,,,,,,,,,,,,,,,
,,,,,,,,,,,,,,,,,,,,,,,,,,,,,,
,,,,,,,,,,,,,,,,,,,,,,,,,,,,,,
,,,,,,,,,,,,,,,,,,,,,,,,,,,,,,
,,,,,,,,,,,,,,,,,,,,,,,,,,,,,,
,,,,,,,,,,,,,,,,,,,,,,,,,,,,,,
,,,,,,,,,,,,,,,,,,,,,,,,,,,,,,
,,,,,,,,,,,,,,,,,,,,,,,,,,,,,,
,,,,,,,,,,,,,,,,,,,,,,,,,,,,,,
,,,,,,,,,,,,,,,,,,,,,,,,,,,,,,
,,,,,,,,,,,,,,,,,,,,,,,,,,,,,,
,,,,,,,,,,,,,,,,,,,,,,,,,,,,,,
,,,,,,,,,,,,,,,,,,,,,,,,,,,,,,
,,,,,,,,,,,,,,,,,,,,,,,,,,,,,,
,,,,,,,,,,,,,,,,,,,,,,,,,,,,,,
,,,,,,,,,,,,,,,,,,,,,,,,,,,,,,
,,,,,,,,,,,,,,,,,,,,,,,,,,,,,,
,,,,,,,,,,,,,,,,,,,,,,,,,,,,,,
,,,,,,,,,,,,,,,,,,,,,,,,,,,,,,
,,,,,,,,,,,,,,,,,,,,,,,,,,,,,,
,,,,,,,,,,,,,,,,,,,,,,,,,,,,,,
,,,,,,,,,,,,,,,,,,,,,,,,,,,,,,
,,,,,,,,,,,,,,,,,,,,,,,,,,,,,,
,,,,,,,,,,,,,,,,,,,,,,,,,,,,,,
,,,,,,,,,,,,,,,,,,,,,,,,,,,,,,
,,,,,,,,,,,,,,,,,,,,,,,,,,,,,,
,,,,,,,,,,,,,,,,,,,,,,,,,,,,,,
,,,,,,,,,,,,,,,,,,,,,,,,,,,,,,
,,,,,,,,,,,,,,,,,,,,,,,,,,,,,,
,,,,,,,,,,,,,,,,,,,,,,,,,,,,,,
,,,,,,,,,,,,,,,,,,,,,,,,,,,,,,
,,,,,,,,,,,,,,,,,,,,,,,,,,,,,,
,,,,,,,,,,,,,,,,,,,,,,,,,,,,,,
,,,,,,,,,,,,,,,,,,,,,,,,,,,,,,
,,,,,,,,,,,,,,,,,,,,,,,,,,,,,,
,,,,,,,,,,,,,,,,,,,,,,,,,,,,,,
,,,,,,,,,,,,,,,,,,,,,,,,,,,,,,
,,,,,,,,,,,,,,,,,,,,,,,,,,,,,,
,,,,,,,,,,,,,,,,,,,,,,,,,,,,,,
,,,,,,,,,,,,,,,,,,,,,,,,,,,,,,
,,,,,,,,,,,,,,,,,,,,,,,,,,,,,,
,,,,,,,,,,,,,,,,,,,,,,,,,,,,,,
,,,,,,,,,,,,,,,,,,,,,,,,,,,,,,
,,,,,,,,,,,,,,,,,,,,,,,,,,,,,,
,,,,,,,,,,,,,,,,,,,,,,,,,,,,,,
,,,,,,,,,,,,,,,,,,,,,,,,,,,,,,
,,,,,,,,,,,,,,,,,,,,,,,,,,,,,,
,,,,,,,,,,,,,,,,,,,,,,,,,,,,,,
,,,,,,,,,,,,,,,,,,,,,,,,,,,,,,
,,,,,,,,,,,,,,,,,,,,,,,,,,,,,,
,,,,,,,,,,,,,,,,,,,,,,,,,,,,,,
,,,,,,,,,,,,,,,,,,,,,,,,,,,,,,
,,,,,,,,,,,,,,,,,,,,,,,,,,,,,,
,,,,,,,,,,,,,,,,,,,,,,,,,,,,,,
,,,,,,,,,,,,,,,,,,,,,,,,,,,,,,
,,,,,,,,,,,,,,,,,,,,,,,,,,,,,,
,,,,,,,,,,,,,,,,,,,,,,,,,,,,,,
,,,,,,,,,,,,,,,,,,,,,,,,,,,,,,
,,,,,,,,,,,,,,,,,,,,,,,,,,,,,,
,,,,,,,,,,,,,,,,,,,,,,,,,,,,,,
,,,,,,,,,,,,,,,,,,,,,,,,,,,,,,
,,,,,,,,,,,,,,,,,,,,,,,,,,,,,,
,,,,,,,,,,,,,,,,,,,,,,,,,,,,,,
,,,,,,,,,,,,,,,,,,,,,,,,,,,,,,
,,,,,,,,,,,,,,,,,,,,,,,,,,,,,,
,,,,,,,,,,,,,,,,,,,,,,,,,,,,,,
,,,,,,,,,,,,,,,,,,,,,,,,,,,,,,
,,,,,,,,,,,,,,,,,,,,,,,,,,,,,,
,,,,,,,,,,,,,,,,,,,,,,,,,,,,,,
,,,,,,,,,,,,,,,,,,,,,,,,,,,,,,
,,,,,,,,,,,,,,,,,,,,,,,,,,,,,,
,,,,,,,,,,,,,,,,,,,,,,,,,,,,,,
,,,,,,,,,,,,,,,,,,,,,,,,,,,,,,
,,,,,,,,,,,,,,,,,,,,,,,,,,,,,,
,,,,,,,,,,,,,,,,,,,,,,,,,,,,,,
,,,,,,,,,,,,,,,,,,,,,,,,,,,,,,
,,,,,,,,,,,,,,,,,,,,,,,,,,,,,,
,,,,,,,,,,,,,,,,,,,,,,,,,,,,,,
,,,,,,,,,,,,,,,,,,,,,,,,,,,,,,
,,,,,,,,,,,,,,,,,,,,,,,,,,,,,,
,,,,,,,,,,,,,,,,,,,,,,,,,,,,,,
,,,,,,,,,,,,,,,,,,,,,,,,,,,,,,
,,,,,,,,,,,,,,,,,,,,,,,,,,,,,,
,,,,,,,,,,,,,,,,,,,,,,,,,,,,,,
,,,,,,,,,,,,,,,,,,,,,,,,,,,,,,
,,,,,,,,,,,,,,,,,,,,,,,,,,,,,,
,,,,,,,,,,,,,,,,,,,,,,,,,,,,,,
,,,,,,,,,,,,,,,,,,,,,,,,,,,,,,
,,,,,,,,,,,,,,,,,,,,,,,,,,,,,,
,,,,,,,,,,,,,,,,,,,,,,,,,,,,,,
,,,,,,,,,,,,,,,,,,,,,,,,,,,,,,
,,,,,,,,,,,,,,,,,,,,,,,,,,,,,,
,,,,,,,,,,,,,,,,,,,,,,,,,,,,,,
,,,,,,,,,,,,,,,,,,,,,,,,,,,,,,
,,,,,,,,,,,,,,,,,,,,,,,,,,,,,,
,,,,,,,,,,,,,,,,,,,,,,,,,,,,,,
,,,,,,,,,,,,,,,,,,,,,,,,,,,,,,
,,,,,,,,,,,,,,,,,,,,,,,,,,,,,,
,,,,,,,,,,,,,,,,,,,,,,,,,,,,,,
,,,,,,,,,,,,,,,,,,,,,,,,,,,,,,
,,,,,,,,,,,,,,,,,,,,,,,,,,,,,,
,,,,,,,,,,,,,,,,,,,,,,,,,,,,,,
,,,,,,,,,,,,,,,,,,,,,,,,,,,,,,
,,,,,,,,,,,,,,,,,,,,,,,,,,,,,,
,,,,,,,,,,,,,,,,,,,,,,,,,,,,,,
,,,,,,,,,,,,,,,,,,,,,,,,,,,,,,
,,,,,,,,,,,,,,,,,,,,,,,,,,,,,,
,,,,,,,,,,,,,,,,,,,,,,,,,,,,,,
,,,,,,,,,,,,,,,,,,,,,,,,,,,,,,
,,,,,,,,,,,,,,,,,,,,,,,,,,,,,,
,,,,,,,,,,,,,,,,,,,,,,,,,,,,,,
,,,,,,,,,,,,,,,,,,,,,,,,,,,,,,
,,,,,,,,,,,,,,,,,,,,,,,,,,,,,,
,,,,,,,,,,,,,,,,,,,,,,,,,,,,,,
,,,,,,,,,,,,,,,,,,,,,,,,,,,,,,
,,,,,,,,,,,,,,,,,,,,,,,,,,,,,,
,,,,,,,,,,,,,,,,,,,,,,,,,,,,,,
,,,,,,,,,,,,,,,,,,,,,,,,,,,,,,
,,,,,,,,,,,,,,,,,,,,,,,,,,,,,,
,,,,,,,,,,,,,,,,,,,,,,,,,,,,,,
,,,,,,,,,,,,,,,,,,,,,,,,,,,,,,
,,,,,,,,,,,,,,,,,,,,,,,,,,,,,,
,,,,,,,,,,,,,,,,,,,,,,,,,,,,,,
,,,,,,,,,,,,,,,,,,,,,,,,,,,,,,
,,,,,,,,,,,,,,,,,,,,,,,,,,,,,,
,,,,,,,,,,,,,,,,,,,,,,,,,,,,,,
,,,,,,,,,,,,,,,,,,,,,,,,,,,,,,
,,,,,,,,,,,,,,,,,,,,,,,,,,,,,,
,,,,,,,,,,,,,,,,,,,,,,,,,,,,,,
,,,,,,,,,,,,,,,,,,,,,,,,,,,,,,
,,,,,,,,,,,,,,,,,,,,,,,,,,,,,,
,,,,,,,,,,,,,,,,,,,,,,,,,,,,,,
,,,,,,,,,,,,,,,,,,,,,,,,,,,,,,
,,,,,,,,,,,,,,,,,,,,,,,,,,,,,,
,,,,,,,,,,,,,,,,,,,,,,,,,,,,,,
,,,,,,,,,,,,,,,,,,,,,,,,,,,,,,
,,,,,,,,,,,,,,,,,,,,,,,,,,,,,,
,,,,,,,,,,,,,,,,,,,,,,,,,,,,,,
,,,,,,,,,,,,,,,,,,,,,,,,,,,,,,
,,,,,,,,,,,,,,,,,,,,,,,,,,,,,,
,,,,,,,,,,,,,,,,,,,,,,,,,,,,,,
,,,,,,,,,,,,,,,,,,,,,,,,,,,,,,
,,,,,,,,,,,,,,,,,,,,,,,,,,,,,,
,,,,,,,,,,,,,,,,,,,,,,,,,,,,,,
,,,,,,,,,,,,,,,,,,,,,,,,,,,,,,
,,,,,,,,,,,,,,,,,,,,,,,,,,,,,,
,,,,,,,,,,,,,,,,,,,,,,,,,,,,,,
,,,,,,,,,,,,,,,,,,,,,,,,,,,,,,
,,,,,,,,,,,,,,,,,,,,,,,,,,,,,,
,,,,,,,,,,,,,,,,,,,,,,,,,,,,,,
,,,,,,,,,,,,,,,,,,,,,,,,,,,,,,
,,,,,,,,,,,,,,,,,,,,,,,,,,,,,,
,,,,,,,,,,,,,,,,,,,,,,,,,,,,,,
,,,,,,,,,,,,,,,,,,,,,,,,,,,,,,
,,,,,,,,,,,,,,,,,,,,,,,,,,,,,,
,,,,,,,,,,,,,,,,,,,,,,,,,,,,,,
,,,,,,,,,,,,,,,,,,,,,,,,,,,,,,
,,,,,,,,,,,,,,,,,,,,,,,,,,,,,,
,,,,,,,,,,,,,,,,,,,,,,,,,,,,,,
,,,,,,,,,,,,,,,,,,,,,,,,,,,,,,
,,,,,,,,,,,,,,,,,,,,,,,,,,,,,,
,,,,,,,,,,,,,,,,,,,,,,,,,,,,,,
,,,,,,,,,,,,,,,,,,,,,,,,,,,,,,
,,,,,,,,,,,,,,,,,,,,,,,,,,,,,,
,,,,,,,,,,,,,,,,,,,,,,,,,,,,,,
,,,,,,,,,,,,,,,,,,,,,,,,,,,,,,
,,,,,,,,,,,,,,,,,,,,,,,,,,,,,,
,,,,,,,,,,,,,,,,,,,,,,,,,,,,,,
,,,,,,,,,,,,,,,,,,,,,,,,,,,,,,
,,,,,,,,,,,,,,,,,,,,,,,,,,,,,,
,,,,,,,,,,,,,,,,,,,,,,,,,,,,,,
,,,,,,,,,,,,,,,,,,,,,,,,,,,,,,
,,,,,,,,,,,,,,,,,,,,,,,,,,,,,,
,,,,,,,,,,,,,,,,,,,,,,,,,,,,,,
,,,,,,,,,,,,,,,,,,,,,,,,,,,,,,
,,,,,,,,,,,,,,,,,,,,,,,,,,,,,,
,,,,,,,,,,,,,,,,,,,,,,,,,,,,,,
,,,,,,,,,,,,,,,,,,,,,,,,,,,,,,
,,,,,,,,,,,,,,,,,,,,,,,,,,,,,,
,,,,,,,,,,,,,,,,,,,,,,,,,,,,,,
,,,,,,,,,,,,,,,,,,,,,,,,,,,,,,
,,,,,,,,,,,,,,,,,,,,,,,,,,,,,,
,,,,,,,,,,,,,,,,,,,,,,,,,,,,,,
,,,,,,,,,,,,,,,,,,,,,,,,,,,,,,
,,,,,,,,,,,,,,,,,,,,,,,,,,,,,,
,,,,,,,,,,,,,,,,,,,,,,,,,,,,,,
,,,,,,,,,,,,,,,,,,,,,,,,,,,,,,
,,,,,,,,,,,,,,,,,,,,,,,,,,,,,,
,,,,,,,,,,,,,,,,,,,,,,,,,,,,,,
,,,,,,,,,,,,,,,,,,,,,,,,,,,,,,
,,,,,,,,,,,,,,,,,,,,,,,,,,,,,,
,,,,,,,,,,,,,,,,,,,,,,,,,,,,,,
,,,,,,,,,,,,,,,,,,,,,,,,,,,,,,
,,,,,,,,,,,,,,,,,,,,,,,,,,,,,,
,,,,,,,,,,,,,,,,,,,,,,,,,,,,,,
,,,,,,,,,,,,,,,,,,,,,,,,,,,,,,
,,,,,,,,,,,,,,,,,,,,,,,,,,,,,,
,,,,,,,,,,,,,,,,,,,,,,,,,,,,,,
,,,,,,,,,,,,,,,,,,,,,,,,,,,,,,
,,,,,,,,,,,,,,,,,,,,,,,,,,,,,,
,,,,,,,,,,,,,,,,,,,,,,,,,,,,,,
,,,,,,,,,,,,,,,,,,,,,,,,,,,,,,
,,,,,,,,,,,,,,,,,,,,,,,,,,,,,,
,,,,,,,,,,,,,,,,,,,,,,,,,,,,,,
,,,,,,,,,,,,,,,,,,,,,,,,,,,,,,
,,,,,,,,,,,,,,,,,,,,,,,,,,,,,,
,,,,,,,,,,,,,,,,,,,,,,,,,,,,,,
,,,,,,,,,,,,,,,,,,,,,,,,,,,,,,
,,,,,,,,,,,,,,,,,,,,,,,,,,,,,,
,,,,,,,,,,,,,,,,,,,,,,,,,,,,,,
,,,,,,,,,,,,,,,,,,,,,,,,,,,,,,
,,,,,,,,,,,,,,,,,,,,,,,,,,,,,,
,,,,,,,,,,,,,,,,,,,,,,,,,,,,,,
,,,,,,,,,,,,,,,,,,,,,,,,,,,,,,
,,,,,,,,,,,,,,,,,,,,,,,,,,,,,,
,,,,,,,,,,,,,,,,,,,,,,,,,,,,,,
,,,,,,,,,,,,,,,,,,,,,,,,,,,,,,
,,,,,,,,,,,,,,,,,,,,,,,,,,,,,,
,,,,,,,,,,,,,,,,,,,,,,,,,,,,,,
,,,,,,,,,,,,,,,,,,,,,,,,,,,,,,
,,,,,,,,,,,,,,,,,,,,,,,,,,,,,,
,,,,,,,,,,,,,,,,,,,,,,,,,,,,,,
,,,,,,,,,,,,,,,,,,,,,,,,,,,,,,
,,,,,,,,,,,,,,,,,,,,,,,,,,,,,,
,,,,,,,,,,,,,,,,,,,,,,,,,,,,,,
,,,,,,,,,,,,,,,,,,,,,,,,,,,,,,
,,,,,,,,,,,,,,,,,,,,,,,,,,,,,,
,,,,,,,,,,,,,,,,,,,,,,,,,,,,,,
,,,,,,,,,,,,,,,,,,,,,,,,,,,,,,
,,,,,,,,,,,,,,,,,,,,,,,,,,,,,,
,,,,,,,,,,,,,,,,,,,,,,,,,,,,,,
,,,,,,,,,,,,,,,,,,,,,,,,,,,,,,
,,,,,,,,,,,,,,,,,,,,,,,,,,,,,,
,,,,,,,,,,,,,,,,,,,,,,,,,,,,,,
,,,,,,,,,,,,,,,,,,,,,,,,,,,,,,
,,,,,,,,,,,,,,,,,,,,,,,,,,,,,,
,,,,,,,,,,,,,,,,,,,,,,,,,,,,,,
,,,,,,,,,,,,,,,,,,,,,,,,,,,,,,
,,,,,,,,,,,,,,,,,,,,,,,,,,,,,,
,,,,,,,,,,,,,,,,,,,,,,,,,,,,,,
,,,,,,,,,,,,,,,,,,,,,,,,,,,,,,
,,,,,,,,,,,,,,,,,,,,,,,,,,,,,,
,,,,,,,,,,,,,,,,,,,,,,,,,,,,,,
,,,,,,,,,,,,,,,,,,,,,,,,,,,,,,
,,,,,,,,,,,,,,,,,,,,,,,,,,,,,,
,,,,,,,,,,,,,,,,,,,,,,,,,,,,,,
,,,,,,,,,,,,,,,,,,,,,,,,,,,,,,
,,,,,,,,,,,,,,,,,,,,,,,,,,,,,,
,,,,,,,,,,,,,,,,,,,,,,,,,,,,,,
,,,,,,,,,,,,,,,,,,,,,,,,,,,,,,
,,,,,,,,,,,,,,,,,,,,,,,,,,,,,,
,,,,,,,,,,,,,,,,,,,,,,,,,,,,,,
,,,,,,,,,,,,,,,,,,,,,,,,,,,,,,
,,,,,,,,,,,,,,,,,,,,,,,,,,,,,,
,,,,,,,,,,,,,,,,,,,,,,,,,,,,,,
,,,,,,,,,,,,,,,,,,,,,,,,,,,,,,
,,,,,,,,,,,,,,,,,,,,,,,,,,,,,,
,,,,,,,,,,,,,,,,,,,,,,,,,,,,,,
,,,,,,,,,,,,,,,,,,,,,,,,,,,,,,
,,,,,,,,,,,,,,,,,,,,,,,,,,,,,,
,,,,,,,,,,,,,,,,,,,,,,,,,,,,,,
,,,,,,,,,,,,,,,,,,,,,,,,,,,,,,
,,,,,,,,,,,,,,,,,,,,,,,,,,,,,,
,,,,,,,,,,,,,,,,,,,,,,,,,,,,,,
,,,,,,,,,,,,,,,,,,,,,,,,,,,,,,
,,,,,,,,,,,,,,,,,,,,,,,,,,,,,,
,,,,,,,,,,,,,,,,,,,,,,,,,,,,,,
,,,,,,,,,,,,,,,,,,,,,,,,,,,,,,
,,,,,,,,,,,,,,,,,,,,,,,,,,,,,,
,,,,,,,,,,,,,,,,,,,,,,,,,,,,,,
,,,,,,,,,,,,,,,,,,,,,,,,,,,,,,
,,,,,,,,,,,,,,,,,,,,,,,,,,,,,,
,,,,,,,,,,,,,,,,,,,,,,,,,,,,,,
,,,,,,,,,,,,,,,,,,,,,,,,,,,,,,
,,,,,,,,,,,,,,,,,,,,,,,,,,,,,,
,,,,,,,,,,,,,,,,,,,,,,,,,,,,,,
,,,,,,,,,,,,,,,,,,,,,,,,,,,,,,
,,,,,,,,,,,,,,,,,,,,,,,,,,,,,,
,,,,,,,,,,,,,,,,,,,,,,,,,,,,,,
,,,,,,,,,,,,,,,,,,,,,,,,,,,,,,
,,,,,,,,,,,,,,,,,,,,,,,,,,,,,,
,,,,,,,,,,,,,,,,,,,,,,,,,,,,,,
,,,,,,,,,,,,,,,,,,,,,,,,,,,,,,
,,,,,,,,,,,,,,,,,,,,,,,,,,,,,,
,,,,,,,,,,,,,,,,,,,,,,,,,,,,,,
,,,,,,,,,,,,,,,,,,,,,,,,,,,,,,
,,,,,,,,,,,,,,,,,,,,,,,,,,,,,,
,,,,,,,,,,,,,,,,,,,,,,,,,,,,,,
,,,,,,,,,,,,,,,,,,,,,,,,,,,,,,
,,,,,,,,,,,,,,,,,,,,,,,,,,,,,,
,,,,,,,,,,,,,,,,,,,,,,,,,,,,,,
,,,,,,,,,,,,,,,,,,,,,,,,,,,,,,
,,,,,,,,,,,,,,,,,,,,,,,,,,,,,,
,,,,,,,,,,,,,,,,,,,,,,,,,,,,,,
,,,,,,,,,,,,,,,,,,,,,,,,,,,,,,
,,,,,,,,,,,,,,,,,,,,,,,,,,,,,,
,,,,,,,,,,,,,,,,,,,,,,,,,,,,,,
,,,,,,,,,,,,,,,,,,,,,,,,,,,,,,
,,,,,,,,,,,,,,,,,,,,,,,,,,,,,,
,,,,,,,,,,,,,,,,,,,,,,,,,,,,,,
,,,,,,,,,,,,,,,,,,,,,,,,,,,,,,
,,,,,,,,,,,,,,,,,,,,,,,,,,,,,,
,,,,,,,,,,,,,,,,,,,,,,,,,,,,,,
,,,,,,,,,,,,,,,,,,,,,,,,,,,,,,
,,,,,,,,,,,,,,,,,,,,,,,,,,,,,,
,,,,,,,,,,,,,,,,,,,,,,,,,,,,,,
,,,,,,,,,,,,,,,,,,,,,,,,,,,,,,
,,,,,,,,,,,,,,,,,,,,,,,,,,,,,,
,,,,,,,,,,,,,,,,,,,,,,,,,,,,,,
,,,,,,,,,,,,,,,,,,,,,,,,,,,,,,
,,,,,,,,,,,,,,,,,,,,,,,,,,,,,,
,,,,,,,,,,,,,,,,,,,,,,,,,,,,,,
,,,,,,,,,,,,,,,,,,,,,,,,,,,,,,
,,,,,,,,,,,,,,,,,,,,,,,,,,,,,,
,,,,,,,,,,,,,,,,,,,,,,,,,,,,,,
,,,,,,,,,,,,,,,,,,,,,,,,,,,,,,
,,,,,,,,,,,,,,,,,,,,,,,,,,,,,,
,,,,,,,,,,,,,,,,,,,,,,,,,,,,,,
,,,,,,,,,,,,,,,,,,,,,,,,,,,,,,
,,,,,,,,,,,,,,,,,,,,,,,,,,,,,,
,,,,,,,,,,,,,,,,,,,,,,,,,,,,,,
,,,,,,,,,,,,,,,,,,,,,,,,,,,,,,
,,,,,,,,,,,,,,,,,,,,,,,,,,,,,,
,,,,,,,,,,,,,,,,,,,,,,,,,,,,,,
,,,,,,,,,,,,,,,,,,,,,,,,,,,,,,
,,,,,,,,,,,,,,,,,,,,,,,,,,,,,,
,,,,,,,,,,,,,,,,,,,,,,,,,,,,,,
,,,,,,,,,,,,,,,,,,,,,,,,,,,,,,
,,,,,,,,,,,,,,,,,,,,,,,,,,,,,,
,,,,,,,,,,,,,,,,,,,,,,,,,,,,,,
,,,,,,,,,,,,,,,,,,,,,,,,,,,,,,
,,,,,,,,,,,,,,,,,,,,,,,,,,,,,,
,,,,,,,,,,,,,,,,,,,,,,,,,,,,,,
,,,,,,,,,,,,,,,,,,,,,,,,,,,,,,
,,,,,,,,,,,,,,,,,,,,,,,,,,,,,,
,,,,,,,,,,,,,,,,,,,,,,,,,,,,,,
,,,,,,,,,,,,,,,,,,,,,,,,,,,,,,
,,,,,,,,,,,,,,,,,,,,,,,,,,,,,,
,,,,,,,,,,,,,,,,,,,,,,,,,,,,,,
,,,,,,,,,,,,,,,,,,,,,,,,,,,,,,
,,,,,,,,,,,,,,,,,,,,,,,,,,,,,,
,,,,,,,,,,,,,,,,,,,,,,,,,,,,,,
,,,,,,,,,,,,,,,,,,,,,,,,,,,,,,
,,,,,,,,,,,,,,,,,,,,,,,,,,,,,,
,,,,,,,,,,,,,,,,,,,,,,,,,,,,,,
,,,,,,,,,,,,,,,,,,,,,,,,,,,,,,
,,,,,,,,,,,,,,,,,,,,,,,,,,,,,,
,,,,,,,,,,,,,,,,,,,,,,,,,,,,,,
,,,,,,,,,,,,,,,,,,,,,,,,,,,,,,
,,,,,,,,,,,,,,,,,,,,,,,,,,,,,,
,,,,,,,,,,,,,,,,,,,,,,,,,,,,,,
,,,,,,,,,,,,,,,,,,,,,,,,,,,,,,
,,,,,,,,,,,,,,,,,,,,,,,,,,,,,,
,,,,,,,,,,,,,,,,,,,,,,,,,,,,,,
,,,,,,,,,,,,,,,,,,,,,,,,,,,,,,
,,,,,,,,,,,,,,,,,,,,,,,,,,,,,,
,,,,,,,,,,,,,,,,,,,,,,,,,,,,,,
,,,,,,,,,,,,,,,,,,,,,,,,,,,,,,
,,,,,,,,,,,,,,,,,,,,,,,,,,,,,,
,,,,,,,,,,,,,,,,,,,,,,,,,,,,,,
,,,,,,,,,,,,,,,,,,,,,,,,,,,,,,
,,,,,,,,,,,,,,,,,,,,,,,,,,,,,,
,,,,,,,,,,,,,,,,,,,,,,,,,,,,,,
,,,,,,,,,,,,,,,,,,,,,,,,,,,,,,
,,,,,,,,,,,,,,,,,,,,,,,,,,,,,,
,,,,,,,,,,,,,,,,,,,,,,,,,,,,,,
,,,,,,,,,,,,,,,,,,,,,,,,,,,,,,
,,,,,,,,,,,,,,,,,,,,,,,,,,,,,,
,,,,,,,,,,,,,,,,,,,,,,,,,,,,,,
,,,,,,,,,,,,,,,,,,,,,,,,,,,,,,
,,,,,,,,,,,,,,,,,,,,,,,,,,,,,,
,,,,,,,,,,,,,,,,,,,,,,,,,,,,,,
,,,,,,,,,,,,,,,,,,,,,,,,,,,,,,
,,,,,,,,,,,,,,,,,,,,,,,,,,,,,,
,,,,,,,,,,,,,,,,,,,,,,,,,,,,,,
,,,,,,,,,,,,,,,,,,,,,,,,,,,,,,
,,,,,,,,,,,,,,,,,,,,,,,,,,,,,,
,,,,,,,,,,,,,,,,,,,,,,,,,,,,,,
,,,,,,,,,,,,,,,,,,,,,,,,,,,,,,
,,,,,,,,,,,,,,,,,,,,,,,,,,,,,,
,,,,,,,,,,,,,,,,,,,,,,,,,,,,,,
,,,,,,,,,,,,,,,,,,,,,,,,,,,,,,
,,,,,,,,,,,,,,,,,,,,,,,,,,,,,,
,,,,,,,,,,,,,,,,,,,,,,,,,,,,,,
,,,,,,,,,,,,,,,,,,,,,,,,,,,,,,
,,,,,,,,,,,,,,,,,,,,,,,,,,,,,,
,,,,,,,,,,,,,,,,,,,,,,,,,,,,,,
,,,,,,,,,,,,,,,,,,,,,,,,,,,,,,
,,,,,,,,,,,,,,,,,,,,,,,,,,,,,,
,,,,,,,,,,,,,,,,,,,,,,,,,,,,,,
,,,,,,,,,,,,,,,,,,,,,,,,,,,,,,
,,,,,,,,,,,,,,,,,,,,,,,,,,,,,,
,,,,,,,,,,,,,,,,,,,,,,,,,,,,,,
,,,,,,,,,,,,,,,,,,,,,,,,,,,,,,
,,,,,,,,,,,,,,,,,,,,,,,,,,,,,,
,,,,,,,,,,,,,,,,,,,,,,,,,,,,,,
,,,,,,,,,,,,,,,,,,,,,,,,,,,,,,
,,,,,,,,,,,,,,,,,,,,,,,,,,,,,,
,,,,,,,,,,,,,,,,,,,,,,,,,,,,,,
,,,,,,,,,,,,,,,,,,,,,,,,,,,,,,
,,,,,,,,,,,,,,,,,,,,,,,,,,,,,,
,,,,,,,,,,,,,,,,,,,,,,,,,,,,,,
,,,,,,,,,,,,,,,,,,,,,,,,,,,,,,
,,,,,,,,,,,,,,,,,,,,,,,,,,,,,,
,,,,,,,,,,,,,,,,,,,,,,,,,,,,,,
,,,,,,,,,,,,,,,,,,,,,,,,,,,,,,
,,,,,,,,,,,,,,,,,,,,,,,,,,,,,,
,,,,,,,,,,,,,,,,,,,,,,,,,,,,,,
,,,,,,,,,,,,,,,,,,,,,,,,,,,,,,
,,,,,,,,,,,,,,,,,,,,,,,,,,,,,,
,,,,,,,,,,,,,,,,,,,,,,,,,,,,,,
,,,,,,,,,,,,,,,,,,,,,,,,,,,,,,
,,,,,,,,,,,,,,,,,,,,,,,,,,,,,,
,,,,,,,,,,,,,,,,,,,,,,,,,,,,,,
,,,,,,,,,,,,,,,,,,,,,,,,,,,,,,
,,,,,,,,,,,,,,,,,,,,,,,,,,,,,,
,,,,,,,,,,,,,,,,,,,,,,,,,,,,,,
,,,,,,,,,,,,,,,,,,,,,,,,,,,,,,
,,,,,,,,,,,,,,,,,,,,,,,,,,,,,,
,,,,,,,,,,,,,,,,,,,,,,,,,,,,,,
,,,,,,,,,,,,,,,,,,,,,,,,,,,,,,
,,,,,,,,,,,,,,,,,,,,,,,,,,,,,,
,,,,,,,,,,,,,,,,,,,,,,,,,,,,,,
,,,,,,,,,,,,,,,,,,,,,,,,,,,,,,
,,,,,,,,,,,,,,,,,,,,,,,,,,,,,,
,,,,,,,,,,,,,,,,,,,,,,,,,,,,,,
,,,,,,,,,,,,,,,,,,,,,,,,,,,,,,
,,,,,,,,,,,,,,,,,,,,,,,,,,,,,,
,,,,,,,,,,,,,,,,,,,,,,,,,,,,,,
,,,,,,,,,,,,,,,,,,,,,,,,,,,,,,
,,,,,,,,,,,,,,,,,,,,,,,,,,,,,,
,,,,,,,,,,,,,,,,,,,,,,,,,,,,,,
,,,,,,,,,,,,,,,,,,,,,,,,,,,,,,
,,,,,,,,,,,,,,,,,,,,,,,,,,,,,,
,,,,,,,,,,,,,,,,,,,,,,,,,,,,,,
,,,,,,,,,,,,,,,,,,,,,,,,,,,,,,
,,,,,,,,,,,,,,,,,,,,,,,,,,,,,,
,,,,,,,,,,,,,,,,,,,,,,,,,,,,,,
,,,,,,,,,,,,,,,,,,,,,,,,,,,,,,
,,,,,,,,,,,,,,,,,,,,,,,,,,,,,,
,,,,,,,,,,,,,,,,,,,,,,,,,,,,,,
,,,,,,,,,,,,,,,,,,,,,,,,,,,,,,
,,,,,,,,,,,,,,,,,,,,,,,,,,,,,,
,,,,,,,,,,,,,,,,,,,,,,,,,,,,,,
,,,,,,,,,,,,,,,,,,,,,,,,,,,,,,
,,,,,,,,,,,,,,,,,,,,,,,,,,,,,,
,,,,,,,,,,,,,,,,,,,,,,,,,,,,,,
,,,,,,,,,,,,,,,,,,,,,,,,,,,,,,
,,,,,,,,,,,,,,,,,,,,,,,,,,,,,,
,,,,,,,,,,,,,,,,,,,,,,,,,,,,,,
,,,,,,,,,,,,,,,,,,,,,,,,,,,,,,
,,,,,,,,,,,,,,,,,,,,,,,,,,,,,,
,,,,,,,,,,,,,,,,,,,,,,,,,,,,,,
,,,,,,,,,,,,,,,,,,,,,,,,,,,,,,
,,,,,,,,,,,,,,,,,,,,,,,,,,,,,,
,,,,,,,,,,,,,,,,,,,,,,,,,,,,,,
,,,,,,,,,,,,,,,,,,,,,,,,,,,,,,
,,,,,,,,,,,,,,,,,,,,,,,,,,,,,,
,,,,,,,,,,,,,,,,,,,,,,,,,,,,,,
,,,,,,,,,,,,,,,,,,,,,,,,,,,,,,
,,,,,,,,,,,,,,,,,,,,,,,,,,,,,,
,,,,,,,,,,,,,,,,,,,,,,,,,,,,,,
,,,,,,,,,,,,,,,,,,,,,,,,,,,,,,
,,,,,,,,,,,,,,,,,,,,,,,,,,,,,,
,,,,,,,,,,,,,,,,,,,,,,,,,,,,,,
,,,,,,,,,,,,,,,,,,,,,,,,,,,,,,
,,,,,,,,,,,,,,,,,,,,,,,,,,,,,,
,,,,,,,,,,,,,,,,,,,,,,,,,,,,,,
,,,,,,,,,,,,,,,,,,,,,,,,,,,,,,
,,,,,,,,,,,,,,,,,,,,,,,,,,,,,,
,,,,,,,,,,,,,,,,,,,,,,,,,,,,,,
,,,,,,,,,,,,,,,,,,,,,,,,,,,,,,
,,,,,,,,,,,,,,,,,,,,,,,,,,,,,,
,,,,,,,,,,,,,,,,,,,,,,,,,,,,,,
,,,,,,,,,,,,,,,,,,,,,,,,,,,,,,
,,,,,,,,,,,,,,,,,,,,,,,,,,,,,,
,,,,,,,,,,,,,,,,,,,,,,,,,,,,,,
,,,,,,,,,,,,,,,,,,,,,,,,,,,,,,
,,,,,,,,,,,,,,,,,,,,,,,,,,,,,,
,,,,,,,,,,,,,,,,,,,,,,,,,,,,,,
,,,,,,,,,,,,,,,,,,,,,,,,,,,,,,
,,,,,,,,,,,,,,,,,,,,,,,,,,,,,,
,,,,,,,,,,,,,,,,,,,,,,,,,,,,,,
,,,,,,,,,,,,,,,,,,,,,,,,,,,,,,
,,,,,,,,,,,,,,,,,,,,,,,,,,,,,,
,,,,,,,,,,,,,,,,,,,,,,,,,,,,,,
,,,,,,,,,,,,,,,,,,,,,,,,,,,,,,
,,,,,,,,,,,,,,,,,,,,,,,,,,,,,,
,,,,,,,,,,,,,,,,,,,,,,,,,,,,,,
,,,,,,,,,,,,,,,,,,,,,,,,,,,,,,
,,,,,,,,,,,,,,,,,,,,,,,,,,,,,,
,,,,,,,,,,,,,,,,,,,,,,,,,,,,,,
,,,,,,,,,,,,,,,,,,,,,,,,,,,,,,
,,,,,,,,,,,,,,,,,,,,,,,,,,,,,,
,,,,,,,,,,,,,,,,,,,,,,,,,,,,,,
,,,,,,,,,,,,,,,,,,,,,,,,,,,,,,
,,,,,,,,,,,,,,,,,,,,,,,,,,,,,,
,,,,,,,,,,,,,,,,,,,,,,,,,,,,,,
,,,,,,,,,,,,,,,,,,,,,,,,,,,,,,
,,,,,,,,,,,,,,,,,,,,,,,,,,,,,,
,,,,,,,,,,,,,,,,,,,,,,,,,,,,,,
,,,,,,,,,,,,,,,,,,,,,,,,,,,,,,
,,,,,,,,,,,,,,,,,,,,,,,,,,,,,,
,,,,,,,,,,,,,,,,,,,,,,,,,,,,,,
,,,,,,,,,,,,,,,,,,,,,,,,,,,,,,
,,,,,,,,,,,,,,,,,,,,,,,,,,,,,,
,,,,,,,,,,,,,,,,,,,,,,,,,,,,,,
,,,,,,,,,,,,,,,,,,,,,,,,,,,,,,
,,,,,,,,,,,,,,,,,,,,,,,,,,,,,,
,,,,,,,,,,,,,,,,,,,,,,,,,,,,,,
,,,,,,,,,,,,,,,,,,,,,,,,,,,,,,
,,,,,,,,,,,,,,,,,,,,,,,,,,,,,,
,,,,,,,,,,,,,,,,,,,,,,,,,,,,,,
,,,,,,,,,,,,,,,,,,,,,,,,,,,,,,
,,,,,,,,,,,,,,,,,,,,,,,,,,,,,,
,,,,,,,,,,,,,,,,,,,,,,,,,,,,,,
,,,,,,,,,,,,,,,,,,,,,,,,,,,,,,
,,,,,,,,,,,,,,,,,,,,,,,,,,,,,,
,,,,,,,,,,,,,,,,,,,,,,,,,,,,,,
,,,,,,,,,,,,,,,,,,,,,,,,,,,,,,
,,,,,,,,,,,,,,,,,,,,,,,,,,,,,,
,,,,,,,,,,,,,,,,,,,,,,,,,,,,,,
,,,,,,,,,,,,,,,,,,,,,,,,,,,,,,
,,,,,,,,,,,,,,,,,,,,,,,,,,,,,,
,,,,,,,,,,,,,,,,,,,,,,,,,,,,,,
,,,,,,,,,,,,,,,,,,,,,,,,,,,,,,
,,,,,,,,,,,,,,,,,,,,,,,,,,,,,,
,,,,,,,,,,,,,,,,,,,,,,,,,,,,,,
,,,,,,,,,,,,,,,,,,,,,,,,,,,,,,
,,,,,,,,,,,,,,,,,,,,,,,,,,,,,,
,,,,,,,,,,,,,,,,,,,,,,,,,,,,,,
,,,,,,,,,,,,,,,,,,,,,,,,,,,,,,
,,,,,,,,,,,,,,,,,,,,,,,,,,,,,,
,,,,,,,,,,,,,,,,,,,,,,,,,,,,,,
,,,,,,,,,,,,,,,,,,,,,,,,,,,,,,
,,,,,,,,,,,,,,,,,,,,,,,,,,,,,,
,,,,,,,,,,,,,,,,,,,,,,,,,,,,,,
,,,,,,,,,,,,,,,,,,,,,,,,,,,,,,
,,,,,,,,,,,,,,,,,,,,,,,,,,,,,,
,,,,,,,,,,,,,,,,,,,,,,,,,,,,,,
,,,,,,,,,,,,,,,,,,,,,,,,,,,,,,
,,,,,,,,,,,,,,,,,,,,,,,,,,,,,,
,,,,,,,,,,,,,,,,,,,,,,,,,,,,,,
,,,,,,,,,,,,,,,,,,,,,,,,,,,,,,
,,,,,,,,,,,,,,,,,,,,,,,,,,,,,,
,,,,,,,,,,,,,,,,,,,,,,,,,,,,,,
,,,,,,,,,,,,,,,,,,,,,,,,,,,,,,
,,,,,,,,,,,,,,,,,,,,,,,,,,,,,,
,,,,,,,,,,,,,,,,,,,,,,,,,,,,,,
,,,,,,,,,,,,,,,,,,,,,,,,,,,,,,
,,,,,,,,,,,,,,,,,,,,,,,,,,,,,,
,,,,,,,,,,,,,,,,,,,,,,,,,,,,,,
,,,,,,,,,,,,,,,,,,,,,,,,,,,,,,
,,,,,,,,,,,,,,,,,,,,,,,,,,,,,,
,,,,,,,,,,,,,,,,,,,,,,,,,,,,,,
,,,,,,,,,,,,,,,,,,,,,,,,,,,,,,
,,,,,,,,,,,,,,,,,,,,,,,,,,,,,,
,,,,,,,,,,,,,,,,,,,,,,,,,,,,,,
,,,,,,,,,,,,,,,,,,,,,,,,,,,,,,
,,,,,,,,,,,,,,,,,,,,,,,,,,,,,,
,,,,,,,,,,,,,,,,,,,,,,,,,,,,,,
,,,,,,,,,,,,,,,,,,,,,,,,,,,,,,
,,,,,,,,,,,,,,,,,,,,,,,,,,,,,,
,,,,,,,,,,,,,,,,,,,,,,,,,,,,,,
,,,,,,,,,,,,,,,,,,,,,,,,,,,,,,
,,,,,,,,,,,,,,,,,,,,,,,,,,,,,,
,,,,,,,,,,,,,,,,,,,,,,,,,,,,,,
,,,,,,,,,,,,,,,,,,,,,,,,,,,,,,
,,,,,,,,,,,,,,,,,,,,,,,,,,,,,,
,,,,,,,,,,,,,,,,,,,,,,,,,,,,,,
,,,,,,,,,,,,,,,,,,,,,,,,,,,,,,
,,,,,,,,,,,,,,,,,,,,,,,,,,,,,,
,,,,,,,,,,,,,,,,,,,,,,,,,,,,,,
,,,,,,,,,,,,,,,,,,,,,,,,,,,,,,
,,,,,,,,,,,,,,,,,,,,,,,,,,,,,,
,,,,,,,,,,,,,,,,,,,,,,,,,,,,,,
,,,,,,,,,,,,,,,,,,,,,,,,,,,,,,
,,,,,,,,,,,,,,,,,,,,,,,,,,,,,,
,,,,,,,,,,,,,,,,,,,,,,,,,,,,,,
,,,,,,,,,,,,,,,,,,,,,,,,,,,,,,
,,,,,,,,,,,,,,,,,,,,,,,,,,,,,,
,,,,,,,,,,,,,,,,,,,,,,,,,,,,,,
,,,,,,,,,,,,,,,,,,,,,,,,,,,,,,
,,,,,,,,,,,,,,,,,,,,,,,,,,,,,,
,,,,,,,,,,,,,,,,,,,,,,,,,,,,,,
,,,,,,,,,,,,,,,,,,,,,,,,,,,,,,
,,,,,,,,,,,,,,,,,,,,,,,,,,,,,,
,,,,,,,,,,,,,,,,,,,,,,,,,,,,,,
,,,,,,,,,,,,,,,,,,,,,,,,,,,,,,
,,,,,,,,,,,,,,,,,,,,,,,,,,,,,,
,,,,,,,,,,,,,,,,,,,,,,,,,,,,,,
,,,,,,,,,,,,,,,,,,,,,,,,,,,,,,
,,,,,,,,,,,,,,,,,,,,,,,,,,,,,,
,,,,,,,,,,,,,,,,,,,,,,,,,,,,,,
,,,,,,,,,,,,,,,,,,,,,,,,,,,,,,
,,,,,,,,,,,,,,,,,,,,,,,,,,,,,,
,,,,,,,,,,,,,,,,,,,,,,,,,,,,,,
,,,,,,,,,,,,,,,,,,,,,,,,,,,,,,
,,,,,,,,,,,,,,,,,,,,,,,,,,,,,,
,,,,,,,,,,,,,,,,,,,,,,,,,,,,,,
,,,,,,,,,,,,,,,,,,,,,,,,,,,,,,
,,,,,,,,,,,,,,,,,,,,,,,,,,,,,,
,,,,,,,,,,,,,,,,,,,,,,,,,,,,,,
,,,,,,,,,,,,,,,,,,,,,,,,,,,,,,
,,,,,,,,,,,,,,,,,,,,,,,,,,,,,,
,,,,,,,,,,,,,,,,,,,,,,,,,,,,,,
,,,,,,,,,,,,,,,,,,,,,,,,,,,,,,
,,,,,,,,,,,,,,,,,,,,,,,,,,,,,,
,,,,,,,,,,,,,,,,,,,,,,,,,,,,,,
,,,,,,,,,,,,,,,,,,,,,,,,,,,,,,
,,,,,,,,,,,,,,,,,,,,,,,,,,,,,,
,,,,,,,,,,,,,,,,,,,,,,,,,,,,,,
,,,,,,,,,,,,,,,,,,,,,,,,,,,,,,
,,,,,,,,,,,,,,,,,,,,,,,,,,,,,,
,,,,,,,,,,,,,,,,,,,,,,,,,,,,,,
,,,,,,,,,,,,,,,,,,,,,,,,,,,,,,
,,,,,,,,,,,,,,,,,,,,,,,,,,,,,,
,,,,,,,,,,,,,,,,,,,,,,,,,,,,,,
,,,,,,,,,,,,,,,,,,,,,,,,,,,,,,
,,,,,,,,,,,,,,,,,,,,,,,,,,,,,,
,,,,,,,,,,,,,,,,,,,,,,,,,,,,,,
,,,,,,,,,,,,,,,,,,,,,,,,,,,,,,
,,,,,,,,,,,,,,,,,,,,,,,,,,,,,,
,,,,,,,,,,,,,,,,,,,,,,,,,,,,,,
,,,,,,,,,,,,,,,,,,,,,,,,,,,,,,
,,,,,,,,,,,,,,,,,,,,,,,,,,,,,,
,,,,,,,,,,,,,,,,,,,,,,,,,,,,,,
,,,,,,,,,,,,,,,,,,,,,,,,,,,,,,
,,,,,,,,,,,,,,,,,,,,,,,,,,,,,,
,,,,,,,,,,,,,,,,,,,,,,,,,,,,,,
,,,,,,,,,,,,,,,,,,,,,,,,,,,,,,
,,,,,,,,,,,,,,,,,,,,,,,,,,,,,,
,,,,,,,,,,,,,,,,,,,,,,,,,,,,,,
,,,,,,,,,,,,,,,,,,,,,,,,,,,,,,
,,,,,,,,,,,,,,,,,,,,,,,,,,,,,,
,,,,,,,,,,,,,,,,,,,,,,,,,,,,,,
,,,,,,,,,,,,,,,,,,,,,,,,,,,,,,
,,,,,,,,,,,,,,,,,,,,,,,,,,,,,,
,,,,,,,,,,,,,,,,,,,,,,,,,,,,,,
,,,,,,,,,,,,,,,,,,,,,,,,,,,,,,
,,,,,,,,,,,,,,,,,,,,,,,,,,,,,,
,,,,,,,,,,,,,,,,,,,,,,,,,,,,,,
,,,,,,,,,,,,,,,,,,,,,,,,,,,,,,
,,,,,,,,,,,,,,,,,,,,,,,,,,,,,,
,,,,,,,,,,,,,,,,,,,,,,,,,,,,,,
,,,,,,,,,,,,,,,,,,,,,,,,,,,,,,
,,,,,,,,,,,,,,,,,,,,,,,,,,,,,,
,,,,,,,,,,,,,,,,,,,,,,,,,,,,,,
,,,,,,,,,,,,,,,,,,,,,,,,,,,,,,
,,,,,,,,,,,,,,,,,,,,,,,,,,,,,,
,,,,,,,,,,,,,,,,,,,,,,,,,,,,,,
,,,,,,,,,,,,,,,,,,,,,,,,,,,,,,
,,,,,,,,,,,,,,,,,,,,,,,,,,,,,,
,,,,,,,,,,,,,,,,,,,,,,,,,,,,,,
,,,,,,,,,,,,,,,,,,,,,,,,,,,,,,
,,,,,,,,,,,,,,,,,,,,,,,,,,,,,,
,,,,,,,,,,,,,,,,,,,,,,,,,,,,,,
,,,,,,,,,,,,,,,,,,,,,,,,,,,,,,
,,,,,,,,,,,,,,,,,,,,,,,,,,,,,,
,,,,,,,,,,,,,,,,,,,,,,,,,,,,,,
,,,,,,,,,,,,,,,,,,,,,,,,,,,,,,
,,,,,,,,,,,,,,,,,,,,,,,,,,,,,,
,,,,,,,,,,,,,,,,,,,,,,,,,,,,,,
,,,,,,,,,,,,,,,,,,,,,,,,,,,,,,
,,,,,,,,,,,,,,,,,,,,,,,,,,,,,,
,,,,,,,,,,,,,,,,,,,,,,,,,,,,,,
,,,,,,,,,,,,,,,,,,,,,,,,,,,,,,
,,,,,,,,,,,,,,,,,,,,,,,,,,,,,,
,,,,,,,,,,,,,,,,,,,,,,,,,,,,,,
,,,,,,,,,,,,,,,,,,,,,,,,,,,,,,
,,,,,,,,,,,,,,,,,,,,,,,,,,,,,,
,,,,,,,,,,,,,,,,,,,,,,,,,,,,,,
,,,,,,,,,,,,,,,,,,,,,,,,,,,,,,
,,,,,,,,,,,,,,,,,,,,,,,,,,,,,,
,,,,,,,,,,,,,,,,,,,,,,,,,,,,,,
,,,,,,,,,,,,,,,,,,,,,,,,,,,,,,
,,,,,,,,,,,,,,,,,,,,,,,,,,,,,,
,,,,,,,,,,,,,,,,,,,,,,,,,,,,,,
,,,,,,,,,,,,,,,,,,,,,,,,,,,,,,
,,,,,,,,,,,,,,,,,,,,,,,,,,,,,,
,,,,,,,,,,,,,,,,,,,,,,,,,,,,,,
,,,,,,,,,,,,,,,,,,,,,,,,,,,,,,
,,,,,,,,,,,,,,,,,,,,,,,,,,,,,,
,,,,,,,,,,,,,,,,,,,,,,,,,,,,,,
,,,,,,,,,,,,,,,,,,,,,,,,,,,,,,
,,,,,,,,,,,,,,,,,,,,,,,,,,,,,,
,,,,,,,,,,,,,,,,,,,,,,,,,,,,,,
,,,,,,,,,,,,,,,,,,,,,,,,,,,,,,
,,,,,,,,,,,,,,,,,,,,,,,,,,,,,,
,,,,,,,,,,,,,,,,,,,,,,,,,,,,,,
,,,,,,,,,,,,,,,,,,,,,,,,,,,,,,
,,,,,,,,,,,,,,,,,,,,,,,,,,,,,,
,,,,,,,,,,,,,,,,,,,,,,,,,,,,,,
,,,,,,,,,,,,,,,,,,,,,,,,,,,,,,
,,,,,,,,,,,,,,,,,,,,,,,,,,,,,,
,,,,,,,,,,,,,,,,,,,,,,,,,,,,,,
,,,,,,,,,,,,,,,,,,,,,,,,,,,,,,
,,,,,,,,,,,,,,,,,,,,,,,,,,,,,,
,,,,,,,,,,,,,,,,,,,,,,,,,,,,,,
,,,,,,,,,,,,,,,,,,,,,,,,,,,,,,
,,,,,,,,,,,,,,,,,,,,,,,,,,,,,,
,,,,,,,,,,,,,,,,,,,,,,,,,,,,,,
,,,,,,,,,,,,,,,,,,,,,,,,,,,,,,
,,,,,,,,,,,,,,,,,,,,,,,,,,,,,,
,,,,,,,,,,,,,,,,,,,,,,,,,,,,,,
,,,,,,,,,,,,,,,,,,,,,,,,,,,,,,
,,,,,,,,,,,,,,,,,,,,,,,,,,,,,,
,,,,,,,,,,,,,,,,,,,,,,,,,,,,,,
,,,,,,,,,,,,,,,,,,,,,,,,,,,,,,
,,,,,,,,,,,,,,,,,,,,,,,,,,,,,,
,,,,,,,,,,,,,,,,,,,,,,,,,,,,,,
,,,,,,,,,,,,,,,,,,,,,,,,,,,,,,
,,,,,,,,,,,,,,,,,,,,,,,,,,,,,,
,,,,,,,,,,,,,,,,,,,,,,,,,,,,,,
,,,,,,,,,,,,,,,,,,,,,,,,,,,,,,
,,,,,,,,,,,,,,,,,,,,,,,,,,,,,,
,,,,,,,,,,,,,,,,,,,,,,,,,,,,,,
,,,,,,,,,,,,,,,,,,,,,,,,,,,,,,
,,,,,,,,,,,,,,,,,,,,,,,,,,,,,,
,,,,,,,,,,,,,,,,,,,,,,,,,,,,,,
,,,,,,,,,,,,,,,,,,,,,,,,,,,,,,
,,,,,,,,,,,,,,,,,,,,,,,,,,,,,,
,,,,,,,,,,,,,,,,,,,,,,,,,,,,,,
,,,,,,,,,,,,,,,,,,,,,,,,,,,,,,
,,,,,,,,,,,,,,,,,,,,,,,,,,,,,,
,,,,,,,,,,,,,,,,,,,,,,,,,,,,,,
,,,,,,,,,,,,,,,,,,,,,,,,,,,,,,
,,,,,,,,,,,,,,,,,,,,,,,,,,,,,,
,,,,,,,,,,,,,,,,,,,,,,,,,,,,,,
,,,,,,,,,,,,,,,,,,,,,,,,,,,,,,
,,,,,,,,,,,,,,,,,,,,,,,,,,,,,,
